{"type": "FeatureCollection", "features": [{"type": "Feature", "properties": {"height": 6.0}, "geometry": {"type": "Polygon", "coordinates": [[[151.1902478, -33.8861327], [151.1908219, -33.88607], [151.1908759, -33.8863976], [151.1908917, -33.8865012], [151.190688, -33.8865234], [151.1906945, -33.8866263], [151.1907308, -33.8866219], [151.1907644, -33.8868135], [151.1904204, -33.8868551], [151.1903851, -33.8868602], [151.1901144, -33.8868921], [151.1900808, -33.8867006], [151.1903958, -33.8866625], [151.1903883, -33.8866137], [151.1903807, -33.8865648], [151.1903155, -33.8865686], [151.1902795, -33.8863366], [151.1902478, -33.8861327]]]}}, {"type": "Feature", "properties": {"height": 22.4}, "geometry": {"type": "Polygon", "coordinates": [[[151.1908405, -33.8902207], [151.1911653, -33.8900454], [151.1912025, -33.8900239], [151.1912465, -33.8900805], [151.1912733, -33.8900671], [151.1912991, -33.8900542], [151.1912952, -33.8900493], [151.1912824, -33.8900331], [151.1913455, -33.8899987], [151.1913546, -33.8899938], [151.1913857, -33.8899773], [151.1915418, -33.8901808], [151.1915307, -33.8901866], [151.1914044, -33.8902504], [151.1914803, -33.8903389], [151.1910944, -33.890543], [151.1908972, -33.8902927], [151.1908405, -33.8902207]]]}}, {"type": "Feature", "properties": {"height": 25.6}, "geometry": {"type": "Polygon", "coordinates": [[[151.190466, -33.8878925], [151.1904864, -33.8880159], [151.1905121, -33.8881718], [151.1905218, -33.8882213], [151.1905244, -33.8882411], [151.1905269, -33.8882623], [151.1905531, -33.8884235], [151.1902356, -33.8884609], [151.1902489, -33.8885362], [151.1902619, -33.8886101], [151.1910566, -33.8885322], [151.1909568, -33.8878402], [151.1909252, -33.8878454], [151.19079, -33.8878581], [151.1907055, -33.8878667], [151.1906916, -33.8878682], [151.1906476, -33.887873], [151.1906355, -33.8878737], [151.1906312, -33.8878742], [151.1906264, -33.8878747], [151.1905558, -33.8878822], [151.190466, -33.8878925]]]}}, {"type": "Feature", "properties": {"height": 9.6}, "geometry": {"type": "Polygon", "coordinates": [[[151.1901602, -33.8878825], [151.1901983, -33.8878783], [151.190293, -33.887868], [151.1902974, -33.887893], [151.1903184, -33.8880117], [151.1903332, -33.8880027], [151.1903573, -33.887995], [151.1903775, -33.8879905], [151.1904083, -33.8879938], [151.1904284, -33.8879983], [151.1904445, -33.888005], [151.1904593, -33.8880083], [151.190466, -33.888015], [151.1904754, -33.8880183], [151.1904864, -33.8880159], [151.1905121, -33.8881718], [151.1904928, -33.8881742], [151.1904847, -33.8881842], [151.1904713, -33.8881953], [151.1904539, -33.8882043], [151.1904391, -33.8882109], [151.190419, -33.8882154], [151.1903949, -33.8882143], [151.1903788, -33.888212], [151.19036, -33.8882098], [151.1903466, -33.8882054], [151.1903544, -33.8882558], [151.1903801, -33.8884213], [151.1903426, -33.8884255], [151.190285, -33.888432], [151.1902514, -33.8884358], [151.1902239, -33.888269], [151.1902208, -33.8882501], [151.1901602, -33.8878825]]]}}, {"type": "Feature", "properties": {"height": 9.6}, "geometry": {"type": "Polygon", "coordinates": [[[151.1901562, -33.8878469], [151.1902554, -33.8877734], [151.1902541, -33.8877589], [151.1903627, -33.8877478], [151.1903533, -33.8876933], [151.1904405, -33.8876821], [151.1904244, -33.8875842], [151.1905089, -33.8875764], [151.1900774, -33.8873958], [151.1901012, -33.8875118], [151.1901173, -33.8875263], [151.1901159, -33.8875363], [151.1901039, -33.8875318], [151.1901403, -33.8877853], [151.1901562, -33.8878469]]]}}, {"type": "Feature", "properties": {"height": 12.8}, "geometry": {"type": "Polygon", "coordinates": [[[151.1905907, -33.8868471], [151.1906631, -33.8868728], [151.1906671, -33.8868794], [151.1906805, -33.8868783], [151.1906805, -33.8868683], [151.1907449, -33.8868627], [151.1907932, -33.8868082], [151.19081, -33.8868065], [151.1909233, -33.8867948], [151.19071, -33.8870242], [151.1907355, -33.8871856], [151.1907798, -33.88718], [151.1907878, -33.8872246], [151.1908562, -33.887219], [151.1908817, -33.8872012], [151.1909474, -33.8876409], [151.190926, -33.8876554], [151.190934, -33.8877267], [151.1908844, -33.88773], [151.190883, -33.8877478], [151.1908079, -33.8877222], [151.1907811, -33.8875652], [151.1907395, -33.8875686], [151.1907275, -33.8875062], [151.1906966, -33.887494], [151.1906787, -33.8873451], [151.1906638, -33.8872952], [151.1906577, -33.8872668], [151.190643, -33.8871689], [151.1906738, -33.8871834], [151.190647, -33.8870075], [151.1906135, -33.8869941], [151.1905907, -33.8868471]]]}}, {"type": "Feature", "properties": {"height": 9.6}, "geometry": {"type": "Polygon", "coordinates": [[[151.1881774, -33.8882305], [151.1883356, -33.8882127], [151.1883341, -33.8881984], [151.1883168, -33.888068], [151.1885287, -33.8880457], [151.1885904, -33.8879678], [151.1885126, -33.8879165], [151.1881345, -33.8879588], [151.1881582, -33.8881088], [151.1881774, -33.8882305]]]}}, {"type": "Feature", "properties": {"height": 9.6}, "geometry": {"type": "Polygon", "coordinates": [[[151.1885126, -33.8879165], [151.1885121, -33.8879083], [151.1886563, -33.8878907], [151.1887028, -33.8882063], [151.1887332, -33.8882032], [151.1887354, -33.8882189], [151.1887372, -33.8882321], [151.188708, -33.888234], [151.1887332, -33.8884], [151.188588, -33.8884174], [151.1885692, -33.888299], [151.1881963, -33.8883381], [151.1881774, -33.8882305], [151.1883356, -33.8882127], [151.1883341, -33.8881984], [151.188547, -33.8881755], [151.1885287, -33.8880457], [151.1885904, -33.8879678], [151.1885126, -33.8879165]]]}}, {"type": "Feature", "properties": {"height": 10.0}, "geometry": {"type": "Polygon", "coordinates": [[[151.1880915, -33.8870711], [151.1882162, -33.8870571], [151.1883711, -33.8870399], [151.1883977, -33.887201], [151.1883623, -33.8872035], [151.1883663, -33.8872393], [151.1883261, -33.8872424], [151.1883061, -33.887113], [151.1882077, -33.887124], [151.1881031, -33.8871362], [151.1880993, -33.8871156], [151.1880915, -33.8870711]]]}}, {"type": "Feature", "properties": {"height": 9.6}, "geometry": {"type": "Polygon", "coordinates": [[[151.1877726, -33.8870417], [151.1877337, -33.8870456], [151.1877349, -33.8870515], [151.1876862, -33.8870576], [151.1876502, -33.8870611], [151.1876493, -33.8870547], [151.1875795, -33.8870622], [151.1875502, -33.8870654], [151.1875511, -33.8870727], [151.1875068, -33.8870778], [151.1875059, -33.887071], [151.1874749, -33.8870742], [151.1874593, -33.8869708], [151.1874482, -33.8869717], [151.1874371, -33.8869007], [151.1874311, -33.8868894], [151.1874275, -33.8868741], [151.1874277, -33.8868579], [151.1874297, -33.88684], [151.187438, -33.8868392], [151.1874309, -33.8867986], [151.1874599, -33.886796], [151.1874572, -33.8867772], [151.1876154, -33.886761], [151.1876021, -33.8867945], [151.1876228, -33.8867938], [151.1876415, -33.8867934], [151.1876639, -33.8867936], [151.1876821, -33.8867948], [151.1876989, -33.8867984], [151.1877163, -33.886802], [151.1877341, -33.8868075], [151.1877509, -33.8868142], [151.1877426, -33.886833], [151.187744, -33.886842], [151.1877889, -33.8868374], [151.1877876, -33.8868267], [151.1878183, -33.886824], [151.187824, -33.8868173], [151.1878448, -33.886815], [151.1878647, -33.8868128], [151.1878706, -33.8868184], [151.1879088, -33.8868148], [151.187914, -33.8868111], [151.1879199, -33.8868088], [151.1879265, -33.8868079], [151.1879322, -33.8868085], [151.1879377, -33.8868097], [151.1879386, -33.8868061], [151.1879417, -33.8868039], [151.1879465, -33.8868045], [151.1879497, -33.8868066], [151.1879505, -33.8868124], [151.1879586, -33.8868117], [151.187969, -33.886885], [151.1879821, -33.8869629], [151.1878125, -33.8869814], [151.1878117, -33.8869733], [151.1878015, -33.8869744], [151.187806, -33.88701], [151.1877702, -33.8870138], [151.1877726, -33.8870417]]]}}, {"type": "Feature", "properties": {"height": 9.6}, "geometry": {"type": "Polygon", "coordinates": [[[151.1876187, -33.8882441], [151.1874836, -33.8882576], [151.1874739, -33.8881625], [151.1873952, -33.8881719], [151.1873677, -33.8881752], [151.1873581, -33.8881273], [151.1872344, -33.8881425], [151.1872377, -33.8881624], [151.1871349, -33.8881743], [151.1870321, -33.8881861], [151.1870296, -33.888164], [151.1869127, -33.8881768], [151.1869168, -33.8882261], [151.1868103, -33.8882364], [151.1868226, -33.8883248], [151.1868239, -33.8883341], [151.1866879, -33.8883478], [151.1866766, -33.8882615], [151.1862693, -33.8883097], [151.1862473, -33.8881736], [151.1865989, -33.8881281], [151.1865976, -33.8881103], [151.1866476, -33.8881025], [151.1866462, -33.8880914], [151.186782, -33.8880769], [151.1867841, -33.8880838], [151.1870781, -33.8880511], [151.1870742, -33.8880322], [151.1871138, -33.8880275], [151.1871481, -33.8880234], [151.1871537, -33.8880409], [151.1875718, -33.8879916], [151.1875756, -33.8880194], [151.1876309, -33.8880137], [151.1876649, -33.8880104], [151.1879867, -33.8879792], [151.1879986, -33.8880459], [151.1880108, -33.8881137], [151.1877335, -33.8881433], [151.1876041, -33.8881572], [151.1876187, -33.8882441]]]}}, {"type": "Feature", "properties": {"height": 19.2}, "geometry": {"type": "Polygon", "coordinates": [[[151.192188, -33.8890538], [151.19224, -33.8888328], [151.1922003, -33.8887814], [151.1922311, -33.8887641], [151.1922718, -33.8887427], [151.1922857, -33.8886834], [151.192299, -33.8886268], [151.1923265, -33.8885101], [151.1923423, -33.8885121], [151.1923549, -33.8884599], [151.1923302, -33.8884561], [151.1923293, -33.8884608], [151.1922623, -33.888448], [151.1921795, -33.8884903], [151.1921201, -33.8886934], [151.1920205, -33.8887455], [151.1920049, -33.8887537], [151.1919962, -33.8887427], [151.1918979, -33.8886186], [151.1917942, -33.8886764], [151.191737, -33.8887064], [151.1917613, -33.8887308], [151.1918721, -33.8888835], [151.1919101, -33.8889317], [151.1919735, -33.8890107], [151.1919901, -33.8890328], [151.1920469, -33.889116], [151.192188, -33.8890538]]]}}, {"type": "Feature", "properties": {"height": 9.6}, "geometry": {"type": "Polygon", "coordinates": [[[151.1916351, -33.8909349], [151.1919266, -33.8908431], [151.191992, -33.8908212], [151.1920513, -33.8908009], [151.1920709, -33.8908453], [151.1921562, -33.8910141], [151.1923662, -33.8909475], [151.192419, -33.8910437], [151.1922008, -33.8911146], [151.1922072, -33.8911273], [151.1920688, -33.8911732], [151.1921269, -33.8912894], [151.1918066, -33.891396], [151.1917212, -33.8914016], [151.191677, -33.8914338], [151.1916689, -33.8914238], [151.1916314, -33.8914539], [151.1916207, -33.8914383], [151.1915804, -33.8914717], [151.1915684, -33.891455], [151.1915308, -33.8914884], [151.1915214, -33.891475], [151.1914836, -33.8915055], [151.1912637, -33.8910506], [151.1913127, -33.8910499], [151.1913095, -33.8910337], [151.1913581, -33.891034], [151.1913591, -33.8910201], [151.1914077, -33.8910168], [151.1914082, -33.8910037], [151.1914567, -33.8909999], [151.1914576, -33.8909883], [151.1915067, -33.8909852], [151.191559, -33.8909711], [151.1915705, -33.8909941], [151.1916496, -33.8909701], [151.1916351, -33.8909349]]]}}, {"type": "Feature", "properties": {"height": 9.6}, "geometry": {"type": "Polygon", "coordinates": [[[151.1897812, -33.890606], [151.1901563, -33.890877], [151.190011, -33.8910164], [151.1897635, -33.8908234], [151.1897177, -33.8908719], [151.1896879, -33.8908532], [151.1896309, -33.8909072], [151.1896563, -33.8909268], [151.1895704, -33.8910138], [151.1895417, -33.8909954], [151.1893896, -33.8911398], [151.1894401, -33.891176], [151.1894679, -33.8911493], [151.1896557, -33.8912839], [151.1896268, -33.8913117], [151.1896319, -33.8913153], [151.189573, -33.8913719], [151.1893574, -33.8912174], [151.189332, -33.8912419], [151.1893011, -33.8912435], [151.1892016, -33.8911737], [151.1892346, -33.8911413], [151.1892169, -33.8911289], [151.1892486, -33.8910978], [151.1892689, -33.8911121], [151.1893026, -33.8910791], [151.1893189, -33.8910905], [151.1894434, -33.8909686], [151.1894301, -33.8909593], [151.1894558, -33.8909342], [151.189461, -33.890938], [151.1895404, -33.8908609], [151.1895347, -33.8908568], [151.1895638, -33.8908287], [151.1895759, -33.8908374], [151.1896981, -33.8907197], [151.1896823, -33.8907084], [151.1897176, -33.8906744], [151.1897006, -33.8906622], [151.1897304, -33.8906249], [151.1897501, -33.8906389], [151.1897812, -33.890606]]]}}, {"type": "Feature", "properties": {"height": 9.0}, "geometry": {"type": "Polygon", "coordinates": [[[151.1874034, -33.88707], [151.187375, -33.8869167], [151.1873588, -33.8868003], [151.1873419, -33.8866791], [151.1873247, -33.8865559], [151.1873014, -33.8865575], [151.1873001, -33.8865451], [151.1872269, -33.8865257], [151.1871708, -33.8865142], [151.1871311, -33.8865099], [151.1870791, -33.8865065], [151.1870146, -33.8865061], [151.1870009, -33.88651], [151.1869901, -33.8865173], [151.186984, -33.8865298], [151.1869913, -33.8865832], [151.1870088, -33.8867093], [151.1870114, -33.8867287], [151.1869959, -33.8867388], [151.1869859, -33.8867504], [151.1869833, -33.8867631], [151.1869856, -33.8867781], [151.1869932, -33.8867913], [151.1870033, -33.8868008], [151.1870198, -33.8868085], [151.1870222, -33.8868269], [151.186992, -33.8868294], [151.1870095, -33.8869509], [151.1870336, -33.8871039], [151.1873647, -33.8870736], [151.1874034, -33.88707]]]}}, {"type": "Feature", "properties": {"height": 9.6}, "geometry": {"type": "Polygon", "coordinates": [[[151.1865912, -33.887146], [151.1869318, -33.887116], [151.1869157, -33.8870247], [151.1868929, -33.8870269], [151.1868876, -33.8870013], [151.1868017, -33.8870024], [151.186732, -33.8870124], [151.186732, -33.8870369], [151.1865818, -33.8870503], [151.1865912, -33.887146]]]}}, {"type": "Feature", "properties": {"height": 19.2}, "geometry": {"type": "Polygon", "coordinates": [[[151.1877982, -33.8862231], [151.1878237, -33.8862198], [151.1878156, -33.8861841], [151.1878974, -33.8861719], [151.1879068, -33.8862086], [151.1883212, -33.8861429], [151.1883333, -33.8861941], [151.1884, -33.8861797], [151.18841, -33.8862473], [151.1880323, -33.8863109], [151.1878263, -33.8863456], [151.1878196, -33.8863244], [151.187801, -33.8862364], [151.1877982, -33.8862231]]]}}, {"type": "Feature", "properties": {"height": 19.2}, "geometry": {"type": "Polygon", "coordinates": [[[151.1877713, -33.886222], [151.1877713, -33.8862398], [151.187801, -33.8862364], [151.1878196, -33.8863244], [151.1877727, -33.8863222], [151.1877713, -33.8863344], [151.1874052, -33.8863233], [151.1874139, -33.886222], [151.1874146, -33.8862131], [151.1874523, -33.886214], [151.1877713, -33.886222]]]}}, {"type": "Feature", "properties": {"height": 12.8}, "geometry": {"type": "Polygon", "coordinates": [[[151.1874052, -33.8863233], [151.1874039, -33.8863467], [151.1873556, -33.8863467], [151.1873516, -33.8863968], [151.1869707, -33.8863879], [151.1869734, -33.8863055], [151.1869519, -33.8863044], [151.1869519, -33.886271], [151.1869694, -33.886271], [151.1869747, -33.8862142], [151.1874139, -33.886222], [151.1874052, -33.8863233]]]}}, {"type": "Feature", "properties": {"height": 9.6}, "geometry": {"type": "Polygon", "coordinates": [[[151.1880561, -33.8858151], [151.188341, -33.8857821], [151.1883626, -33.8859278], [151.1880749, -33.885962], [151.1880561, -33.8858151]]]}}, {"type": "Feature", "properties": {"height": 6.4}, "geometry": {"type": "Polygon", "coordinates": [[[151.1869376, -33.8861535], [151.1872622, -33.8861658], [151.1872661, -33.8860396], [151.1869537, -33.88603], [151.1869443, -33.8860288], [151.1869376, -33.8861535]]]}}, {"type": "Feature", "properties": {"height": 6.4}, "geometry": {"type": "Polygon", "coordinates": [[[151.1873091, -33.885254], [151.1874445, -33.885237], [151.1874781, -33.8852328], [151.187462, -33.8851182], [151.1874513, -33.8851126], [151.1874177, -33.8848543], [151.1873212, -33.8848587], [151.1872139, -33.8848754], [151.1872235, -33.8849234], [151.187239, -33.8850007], [151.1872662, -33.885136], [151.1872501, -33.8851371], [151.1872595, -33.8851916], [151.187293, -33.8851883], [151.1873091, -33.885254]]]}}, {"type": "Feature", "properties": {"height": 6.4}, "geometry": {"type": "Polygon", "coordinates": [[[151.1865876, -33.8852106], [151.1865527, -33.8852149], [151.1865165, -33.8852195], [151.1865111, -33.8851805], [151.1864293, -33.8851939], [151.186427, -33.8851795], [151.1863985, -33.8850057], [151.1864991, -33.8849946], [151.1864977, -33.8849812], [151.1865366, -33.8849768], [151.1865339, -33.8849567], [151.1865822, -33.8849534], [151.1865822, -33.8849422], [151.1867633, -33.8849211], [151.1867646, -33.8849356], [151.1868129, -33.8849278], [151.1868169, -33.8849589], [151.186947, -33.8849456], [151.1869601, -33.8850303], [151.1869738, -33.8851193], [151.1869913, -33.8851293], [151.1869913, -33.8851471], [151.1869752, -33.8851593], [151.1869832, -33.8852184], [151.1872595, -33.8851916], [151.187293, -33.8851883], [151.1873091, -33.885254], [151.1874445, -33.885237], [151.187458, -33.8853208], [151.1873949, -33.8853297], [151.1873855, -33.8853197], [151.187344, -33.885323], [151.1873453, -33.8853586], [151.1872715, -33.8853675], [151.1872648, -33.8853397], [151.1869022, -33.8853904], [151.1868918, -33.8853035], [151.1868598, -33.8851816], [151.1866009, -33.8852091], [151.1865876, -33.8852106]]]}}, {"type": "Feature", "properties": {"height": 3.2}, "geometry": {"type": "Polygon", "coordinates": [[[151.1867673, -33.8854269], [151.1867724, -33.8854272], [151.1867713, -33.8854405], [151.1868167, -33.8854431], [151.1868754, -33.8854464], [151.1868864, -33.8853131], [151.1868286, -33.8853098], [151.1868317, -33.8852715], [151.1867804, -33.8852686], [151.1867782, -33.8852948], [151.186777, -33.8853099], [151.1867736, -33.8853503], [151.1867673, -33.8854269]]]}}, {"type": "Feature", "properties": {"height": 6.4}, "geometry": {"type": "Polygon", "coordinates": [[[151.185972, -33.8852094], [151.1860444, -33.8852117], [151.1860404, -33.8851749], [151.1860833, -33.8851694], [151.1860833, -33.8850903], [151.1862174, -33.885077], [151.1862201, -33.8850937], [151.1862791, -33.8850925], [151.1862778, -33.8851326], [151.1863261, -33.8851337], [151.1863234, -33.8851772], [151.186427, -33.8851795], [151.1864293, -33.8851939], [151.1865111, -33.8851805], [151.1865165, -33.8852195], [151.1865527, -33.8852149], [151.1865497, -33.8853196], [151.1865474, -33.8853998], [151.1864588, -33.8854009], [151.1864562, -33.8854243], [151.1863284, -33.8854213], [151.1860766, -33.8854154], [151.1860766, -33.8854332], [151.1859626, -33.885431], [151.185972, -33.8852094]]]}}, {"type": "Feature", "properties": {"height": 6.4}, "geometry": {"type": "Polygon", "coordinates": [[[151.1868129, -33.8849278], [151.1868773, -33.8849178], [151.1868759, -33.884881], [151.1871213, -33.8848621], [151.187124, -33.8848721], [151.187116, -33.8848732], [151.1871254, -33.8849356], [151.187179, -33.88493], [151.1871736, -33.8848844], [151.1872085, -33.884881], [151.1872159, -33.884925], [151.1872235, -33.8849234], [151.187239, -33.8850007], [151.1869601, -33.8850303], [151.186947, -33.8849456], [151.1868169, -33.8849589], [151.1868129, -33.8849278]]]}}, {"type": "Feature", "properties": {"height": 6.4}, "geometry": {"type": "Polygon", "coordinates": [[[151.1876685, -33.8853186], [151.1878925, -33.885323], [151.1879005, -33.8851337], [151.1879515, -33.8851382], [151.1879515, -33.8850836], [151.1879528, -33.8850736], [151.187918, -33.8850703], [151.187918, -33.8850335], [151.1878952, -33.8850324], [151.1878952, -33.8849868], [151.1878603, -33.8849389], [151.1877155, -33.8849333], [151.1877034, -33.8850424], [151.1876819, -33.8850424], [151.1876792, -33.8850625], [151.1876685, -33.8853186]]]}}, {"type": "Feature", "properties": {"height": 6.4}, "geometry": {"type": "Polygon", "coordinates": [[[151.1879797, -33.885303], [151.1880668, -33.8852929], [151.1880668, -33.8852785], [151.1885872, -33.8852184], [151.1885885, -33.8852362], [151.1886596, -33.8852284], [151.1886667, -33.8852576], [151.1887236, -33.8852512], [151.1887709, -33.8852462], [151.1887334, -33.8850246], [151.1887481, -33.8850202], [151.1887535, -33.8850068], [151.1888125, -33.8850013], [151.1887964, -33.8849222], [151.1887843, -33.8849238], [151.1887119, -33.8849356], [151.1886958, -33.8849233], [151.188618, -33.8849311], [151.1886274, -33.885009], [151.1885617, -33.8850135], [151.188559, -33.8850257], [151.1883578, -33.8850491], [151.1883471, -33.8849879], [151.1882492, -33.8849979], [151.1882599, -33.8850603], [151.1880387, -33.8850859], [151.188036, -33.8850781], [151.1879515, -33.8850836], [151.1879515, -33.8851382], [151.1879569, -33.8851582], [151.1879743, -33.8851582], [151.1879837, -33.8852284], [151.1879676, -33.8852295], [151.1879797, -33.885303]]]}}, {"type": "Feature", "properties": {"height": 10.0}, "geometry": {"type": "Polygon", "coordinates": [[[151.1886944, -33.8854047], [151.1887476, -33.8853987], [151.1887391, -33.8853465], [151.1887236, -33.8852512], [151.1886667, -33.8852576], [151.1886739, -33.8853021], [151.1886664, -33.8853029], [151.188671, -33.8853309], [151.1886611, -33.885332], [151.1886644, -33.8853525], [151.1886778, -33.885351], [151.1886828, -33.8853817], [151.1886905, -33.8853808], [151.1886944, -33.8854047]]]}}, {"type": "Feature", "properties": {"height": 6.4}, "geometry": {"type": "Polygon", "coordinates": [[[151.1891422, -33.8854787], [151.1890116, -33.8854921], [151.1887852, -33.885518], [151.1887672, -33.8853774], [151.1887926, -33.8853754], [151.1887856, -33.8853514], [151.1887789, -33.8853286], [151.1888487, -33.8853208], [151.1888567, -33.8853542], [151.1892457, -33.885313], [151.1892668, -33.885466], [151.1891422, -33.8854787]]]}}, {"type": "Feature", "properties": {"height": 9.6}, "geometry": {"type": "Polygon", "coordinates": [[[151.1890116, -33.8854921], [151.1890392, -33.8856779], [151.1890715, -33.8858953], [151.189106, -33.8861269], [151.1891267, -33.8862665], [151.1888287, -33.886297], [151.1885554, -33.886325], [151.1885005, -33.8859558], [151.1884408, -33.8855543], [151.1887118, -33.8855265], [151.1886944, -33.8854047], [151.1886905, -33.8853808], [151.1886828, -33.8853817], [151.1886089, -33.8853895], [151.1886111, -33.8854046], [151.1884615, -33.8854199], [151.188225, -33.8854441], [151.1880134, -33.8854657], [151.1880283, -33.8855659], [151.1880341, -33.8856049], [151.1880566, -33.8856026], [151.1883105, -33.8855766], [151.188314, -33.8856004], [151.1883369, -33.8857541], [151.188341, -33.8857821], [151.1883626, -33.8859278], [151.1883689, -33.8859698], [151.1884, -33.8861797], [151.18841, -33.8862473], [151.1884272, -33.8863629], [151.1882882, -33.8863771], [151.1883114, -33.886534], [151.1888564, -33.8864783], [151.1893331, -33.8864296], [151.1893285, -33.8863986], [151.1893129, -33.8862938], [151.1892614, -33.8862991], [151.1892389, -33.8861476], [151.1892635, -33.8861451], [151.1892585, -33.8861112], [151.1892555, -33.8860909], [151.1892522, -33.8860687], [151.1892303, -33.886071], [151.1892099, -33.8859338], [151.1892021, -33.8858814], [151.1892, -33.8858674], [151.1891747, -33.8856972], [151.1891696, -33.8856626], [151.189167, -33.8856453], [151.1891422, -33.8854787], [151.1890116, -33.8854921]]]}}, {"type": "Feature", "properties": {"height": 6.4}, "geometry": {"type": "Polygon", "coordinates": [[[151.1853237, -33.8854482], [151.1853386, -33.8855434], [151.1853882, -33.885538], [151.1853871, -33.8855312], [151.18546, -33.8855234], [151.1854639, -33.8855484], [151.1856652, -33.8855269], [151.1856604, -33.8854962], [151.1857009, -33.8854919], [151.1857023, -33.8855009], [151.1857636, -33.8854943], [151.1857623, -33.8854859], [151.1857735, -33.8854847], [151.1857599, -33.8853978], [151.1856786, -33.8854065], [151.1856755, -33.8853866], [151.1854378, -33.8854122], [151.1854415, -33.8854355], [151.1853237, -33.8854482]]]}}, {"type": "Feature", "properties": {"height": 10.0}, "geometry": {"type": "Polygon", "coordinates": [[[151.1857511, -33.8852996], [151.1858934, -33.885301], [151.1858992, -33.8851701], [151.1854263, -33.8851528], [151.1850925, -33.8852206], [151.1851456, -33.8854124], [151.1857511, -33.8852996]]]}}, {"type": "Feature", "properties": {"height": 3.2}, "geometry": {"type": "Polygon", "coordinates": [[[151.1914899, -33.8850843], [151.1915469, -33.8850825], [151.1915461, -33.8850653], [151.1915707, -33.8850645], [151.1915687, -33.8850179], [151.1915479, -33.8850185], [151.1915461, -33.8849773], [151.1915336, -33.8849777], [151.1915324, -33.8849499], [151.1914996, -33.8849509], [151.1915001, -33.8849624], [151.1914846, -33.8849628], [151.1914899, -33.8850843]]]}}, {"type": "Feature", "properties": {"height": 10.0}, "geometry": {"type": "Polygon", "coordinates": [[[151.1913584, -33.8854386], [151.19138, -33.8854446], [151.191399, -33.8853973], [151.1913774, -33.8853913], [151.1913584, -33.8854386]]]}}, {"type": "Feature", "properties": {"height": 6.4}, "geometry": {"type": "Polygon", "coordinates": [[[151.1840529, -33.8861357], [151.1841736, -33.8861224], [151.1841696, -33.8860934], [151.1842192, -33.886089], [151.1842058, -33.8860244], [151.1841602, -33.88603], [151.1841495, -33.8859676], [151.1842326, -33.8859587], [151.1842004, -33.8857683], [151.1842313, -33.8857661], [151.184183, -33.8854744], [151.1839832, -33.8854978], [151.1839885, -33.8855167], [151.184014, -33.8856581], [151.1839662, -33.8856624], [151.1839845, -33.8857739], [151.1839496, -33.8857772], [151.1839872, -33.8860121], [151.1839684, -33.8860144], [151.1839711, -33.8860422], [151.1839858, -33.88604], [151.1839952, -33.8861112], [151.1840489, -33.8861057], [151.1840529, -33.8861357]]]}}, {"type": "Feature", "properties": {"height": 6.4}, "geometry": {"type": "Polygon", "coordinates": [[[151.1833844, -33.8857179], [151.1835333, -33.8857048], [151.1835355, -33.8857191], [151.1835997, -33.8857128], [151.183599, -33.8857002], [151.1837616, -33.8856802], [151.1837427, -33.8855292], [151.1838451, -33.8855159], [151.1838736, -33.8857599], [151.1837533, -33.8857746], [151.1837556, -33.885791], [151.1833945, -33.8858262], [151.1833926, -33.8858118], [151.1833506, -33.8858161], [151.1833454, -33.8857829], [151.1833348, -33.8857375], [151.1833847, -33.8857317], [151.1833844, -33.8857179]]]}}, {"type": "Feature", "properties": {"height": 3.2}, "geometry": {"type": "Polygon", "coordinates": [[[151.183466, -33.8860398], [151.1835192, -33.8860301], [151.1835413, -33.8859998], [151.183532, -33.8859591], [151.1834975, -33.8859368], [151.1834462, -33.8859441], [151.1834172, -33.8859749], [151.1834285, -33.8860188], [151.183466, -33.8860398]]]}}, {"type": "Feature", "properties": {"height": 3.0}, "geometry": {"type": "Polygon", "coordinates": [[[151.1835008, -33.8861313], [151.1835252, -33.8862804], [151.1829578, -33.8863444], [151.1829332, -33.8861945], [151.1829331, -33.8861939], [151.1829584, -33.886191], [151.1829659, -33.8861812], [151.1829791, -33.8861636], [151.1829675, -33.8860925], [151.1829849, -33.8860906], [151.1829835, -33.886082], [151.1829596, -33.8859357], [151.1832755, -33.8859001], [151.1833011, -33.8860562], [151.1832433, -33.8860627], [151.183259, -33.8861585], [151.1835008, -33.8861313]]]}}, {"type": "Feature", "properties": {"height": 1.0}, "geometry": {"type": "Polygon", "coordinates": [[[151.1840332, -33.8866999], [151.1840067, -33.8865308], [151.1839972, -33.8864701], [151.183882, -33.8864826], [151.1838837, -33.8864935], [151.1835679, -33.8865275], [151.183572, -33.8865535], [151.1834712, -33.8865644], [151.1834677, -33.8865419], [151.1832937, -33.8865607], [151.1834984, -33.8866624], [151.183585, -33.8866531], [151.1838049, -33.8866294], [151.1838014, -33.8866069], [151.1838515, -33.8866014], [151.1838697, -33.8867175], [151.1839562, -33.8867082], [151.1839855, -33.886705], [151.1840332, -33.8866999]]]}}, {"type": "Feature", "properties": {"height": 10.0}, "geometry": {"type": "Polygon", "coordinates": [[[151.1835678, -33.8861125], [151.1838356, -33.8860845], [151.183841, -33.8861346], [151.1838692, -33.886158], [151.1839376, -33.886148], [151.1839832, -33.886433], [151.1838693, -33.8864473], [151.1838519, -33.8863371], [151.183719, -33.8863506], [151.183664, -33.8863183], [151.1836452, -33.8861992], [151.1835768, -33.8862059], [151.1835728, -33.8861769], [151.1835513, -33.8861803], [151.1835455, -33.8861412], [151.1835714, -33.8861368], [151.1835678, -33.8861125]]]}}, {"type": "Feature", "properties": {"height": 10.0}, "geometry": {"type": "Polygon", "coordinates": [[[151.1838693, -33.8864473], [151.1835205, -33.8864842], [151.183518, -33.8864707], [151.1832658, -33.8864985], [151.183125, -33.8864061], [151.1832591, -33.8863928], [151.1832632, -33.8864039], [151.1833999, -33.8863894], [151.1833999, -33.8863817], [151.1834201, -33.8863783], [151.1834227, -33.8863872], [151.183503, -33.8863807], [151.183723, -33.8863595], [151.183719, -33.8863506], [151.1838519, -33.8863371], [151.1838693, -33.8864473]]]}}, {"type": "Feature", "properties": {"height": 3.2}, "geometry": {"type": "Polygon", "coordinates": [[[151.1854975, -33.8869865], [151.1856299, -33.8869182], [151.1857393, -33.8870642], [151.1856069, -33.8871326], [151.1854975, -33.8869865]]]}}, {"type": "Feature", "properties": {"height": 3.2}, "geometry": {"type": "Polygon", "coordinates": [[[151.1854843, -33.8868376], [151.185496, -33.8868177], [151.1855139, -33.8868027], [151.1855366, -33.8867932], [151.1855618, -33.8867901], [151.1855869, -33.8867939], [151.1856092, -33.886804], [151.1856265, -33.8868195], [151.185637, -33.8868387], [151.1856397, -33.8868598], [151.1856341, -33.8868804], [151.1856202, -33.8868993], [151.1855995, -33.8869133], [151.1855744, -33.8869208], [151.1855477, -33.8869209], [151.1855224, -33.8869137], [151.1855015, -33.8869], [151.1854872, -33.8868812], [151.1854813, -33.8868596], [151.1854843, -33.8868376]]]}}, {"type": "Feature", "properties": {"height": 6.4}, "geometry": {"type": "Polygon", "coordinates": [[[151.1863294, -33.8884527], [151.186512, -33.8884916], [151.1865259, -33.8884469], [151.1865538, -33.8884528], [151.1865569, -33.8884427], [151.1865777, -33.8884334], [151.186607, -33.8884402], [151.1866191, -33.8884566], [151.1866157, -33.8884666], [151.18664, -33.8884723], [151.1866244, -33.8885181], [151.1866712, -33.888529], [151.1866649, -33.8885475], [151.1866826, -33.8885516], [151.1866958, -33.8885721], [151.1866903, -33.8885929], [151.1866651, -33.8886056], [151.1866592, -33.8886243], [151.1865963, -33.8886106], [151.1865053, -33.8888973], [151.1865715, -33.8889118], [151.1865284, -33.8890478], [151.1865716, -33.8890573], [151.1865041, -33.8892699], [151.1862507, -33.8892145], [151.1862141, -33.8893298], [151.1863079, -33.8893503], [151.1862791, -33.889441], [151.1861332, -33.889409], [151.1861258, -33.8894325], [151.1861504, -33.8894379], [151.18609, -33.8896275], [151.1860551, -33.8896198], [151.1860496, -33.889637], [151.1859281, -33.8896102], [151.1859842, -33.8894347], [151.1860246, -33.8894436], [151.1860303, -33.8894257], [151.1860536, -33.8894308], [151.1860634, -33.8894001], [151.1858568, -33.8893545], [151.1858661, -33.8893255], [151.1858523, -33.889307], [151.1858597, -33.8892865], [151.1858825, -33.8892771], [151.1858903, -33.8892527], [151.1860734, -33.8892928], [151.1860986, -33.8892134], [151.1860896, -33.8892037], [151.1860938, -33.8891899], [151.1861073, -33.889185], [151.1861216, -33.8891454], [151.1861113, -33.8891336], [151.1861136, -33.8891235], [151.1861294, -33.8891179], [151.1861545, -33.8890376], [151.1861324, -33.8890328], [151.1861368, -33.8890187], [151.1860252, -33.8889947], [151.1860138, -33.8890101], [151.1859181, -33.8889901], [151.1859183, -33.8889694], [151.1858864, -33.8889634], [151.1858703, -33.8889422], [151.1858823, -33.8889044], [151.1859159, -33.8888899], [151.1859424, -33.8888958], [151.1859531, -33.8888789], [151.1860469, -33.888897], [151.1860406, -33.8889193], [151.1860948, -33.8889297], [151.1860923, -33.8889386], [151.1861602, -33.8889516], [151.1861652, -33.8889339], [151.1862097, -33.8889424], [151.1862156, -33.8889213], [151.1861972, -33.8889177], [151.1862039, -33.8888935], [151.1861939, -33.8888778], [151.1862, -33.8888571], [151.1862205, -33.8888499], [151.1862354, -33.888853], [151.186244, -33.8888246], [151.1862667, -33.8888293], [151.1862826, -33.8888203], [151.1863136, -33.8888262], [151.1863189, -33.8888374], [151.1863416, -33.8888424], [151.1863358, -33.8888606], [151.1863981, -33.8888743], [151.1864894, -33.8885882], [151.1862994, -33.8885464], [151.1863057, -33.8885267], [151.1862917, -33.8885069], [151.1862998, -33.8884826], [151.1863236, -33.8884716], [151.1863294, -33.8884527]]]}}, {"type": "Feature", "properties": {"height": 6.4}, "geometry": {"type": "Polygon", "coordinates": [[[151.1862791, -33.889441], [151.186565, -33.8895067], [151.1865945, -33.889412], [151.1863079, -33.8893503], [151.1862791, -33.889441]]]}}, {"type": "Feature", "properties": {"height": 6.4}, "geometry": {"type": "Polygon", "coordinates": [[[151.1872925, -33.8894032], [151.1874452, -33.8893807], [151.187461, -33.8893703], [151.1874717, -33.8893584], [151.1874755, -33.8893448], [151.1874695, -33.8893191], [151.1874621, -33.8893086], [151.18745, -33.8893008], [151.1874351, -33.8892953], [151.1868463, -33.889383], [151.1868611, -33.8894503], [151.1868886, -33.8894461], [151.1869078, -33.8895335], [151.186891, -33.8895361], [151.1869007, -33.8895801], [151.1868533, -33.8895872], [151.1868615, -33.8896245], [151.1868968, -33.8896192], [151.1869114, -33.8896861], [151.1869284, -33.8896835], [151.1869375, -33.8897253], [151.1868939, -33.8897318], [151.1869177, -33.8898412], [151.1869463, -33.8898369], [151.1869735, -33.8899628], [151.1869922, -33.88996], [151.1870236, -33.890106], [151.1869966, -33.89011], [151.1870037, -33.8901432], [151.1869777, -33.890147], [151.1870756, -33.890604], [151.1871233, -33.8905969], [151.1871405, -33.8906769], [151.1871557, -33.8906746], [151.1871616, -33.8907004], [151.1871627, -33.8907092], [151.1871817, -33.8907076], [151.1875754, -33.8906476], [151.187557, -33.8905621], [151.187157, -33.8906215], [151.1871506, -33.8905918], [151.1871783, -33.8905877], [151.1871447, -33.8904321], [151.1872859, -33.8904111], [151.1872904, -33.890408], [151.1873333, -33.8903787], [151.1873227, -33.8903285], [151.1872642, -33.8903136], [151.1871237, -33.8903351], [151.1870896, -33.8901816], [151.1870487, -33.8901879], [151.1870429, -33.8901616], [151.1870889, -33.8901545], [151.187078, -33.8901058], [151.1871011, -33.8901023], [151.1870933, -33.890067], [151.1873806, -33.8900349], [151.1876593, -33.8899799], [151.1876779, -33.8900631], [151.187751, -33.8900519], [151.1877024, -33.8898346], [151.1877197, -33.8898319], [151.1876918, -33.8897077], [151.1877031, -33.889706], [151.1876921, -33.889657], [151.1876576, -33.8896624], [151.1876264, -33.8895239], [151.187664, -33.889518], [151.1876447, -33.8894325], [151.1874325, -33.8894655], [151.1874529, -33.8895561], [151.1875004, -33.8895487], [151.1875073, -33.8895795], [151.1875827, -33.8899151], [151.1871277, -33.8899855], [151.1871158, -33.8899325], [151.1871539, -33.8899267], [151.1870797, -33.8895945], [151.1871079, -33.8895901], [151.1870914, -33.8895158], [151.1870122, -33.8895279], [151.186992, -33.8894368], [151.1872772, -33.8893932], [151.1872925, -33.8894032]]]}}, {"type": "Feature", "properties": {"height": 6.4}, "geometry": {"type": "Polygon", "coordinates": [[[151.187709, -33.8907147], [151.1877948, -33.8907024], [151.1877787, -33.8906467], [151.1879437, -33.8906189], [151.1879236, -33.890531], [151.1879008, -33.8905354], [151.187886, -33.8904831], [151.1876567, -33.8905209], [151.187709, -33.8907147]]]}}, {"type": "Feature", "properties": {"height": 6.4}, "geometry": {"type": "Polygon", "coordinates": [[[151.1876278, -33.8911894], [151.1877013, -33.8911876], [151.1876955, -33.8910228], [151.187622, -33.8910246], [151.1876278, -33.8911894]]]}}, {"type": "Feature", "properties": {"height": 9.6}, "geometry": {"type": "Polygon", "coordinates": [[[151.1869691, -33.8910222], [151.1870745, -33.8910197], [151.1870797, -33.8911715], [151.1869741, -33.891174], [151.1869738, -33.891164], [151.186663, -33.8911716], [151.1866633, -33.8911793], [151.1865666, -33.8911817], [151.1865646, -33.8911274], [151.1864662, -33.8911299], [151.1864635, -33.8910574], [151.1866598, -33.8910523], [151.1866614, -33.8910945], [151.1867049, -33.8910938], [151.1867323, -33.8910921], [151.1869713, -33.8910869], [151.1869691, -33.8910222]]]}}, {"type": "Feature", "properties": {"height": 10.0}, "geometry": {"type": "Polygon", "coordinates": [[[151.1867049, -33.8910938], [151.1866523, -33.8908654], [151.1866815, -33.8908594], [151.1866971, -33.8909118], [151.1867323, -33.8910921], [151.1867049, -33.8910938]]]}}, {"type": "Feature", "properties": {"height": 3.2}, "geometry": {"type": "Polygon", "coordinates": [[[151.1854705, -33.8905271], [151.1857052, -33.8904881], [151.1857293, -33.8905838], [151.1856609, -33.8905983], [151.1856556, -33.8905827], [151.1856288, -33.8905861], [151.1856328, -33.8906117], [151.1856489, -33.8906083], [151.1856529, -33.8906373], [151.1856931, -33.8906317], [151.185724, -33.8907653], [151.1855309, -33.8907976], [151.1854705, -33.8905271]]]}}, {"type": "Feature", "properties": {"height": 3.2}, "geometry": {"type": "Polygon", "coordinates": [[[151.1853914, -33.8903066], [151.1854718, -33.8902755], [151.1854531, -33.8902454], [151.1854879, -33.8902309], [151.1855054, -33.8902677], [151.1855858, -33.8902298], [151.1855724, -33.8904035], [151.1853914, -33.8903066]]]}}, {"type": "Feature", "properties": {"height": 6.4}, "geometry": {"type": "Polygon", "coordinates": [[[151.1852157, -33.8900272], [151.1852841, -33.8899983], [151.185276, -33.8899849], [151.1853766, -33.8899459], [151.1853927, -33.8899715], [151.1853994, -33.8899871], [151.1854209, -33.8899916], [151.1854316, -33.8900061], [151.1854303, -33.8900261], [151.1855, -33.8901352], [151.1855255, -33.8901229], [151.1855832, -33.8902231], [151.1855241, -33.8902487], [151.1855013, -33.8902142], [151.1853847, -33.890261], [151.1853659, -33.8902243], [151.1853552, -33.8902287], [151.1853203, -33.890173], [151.1853015, -33.8901819], [151.1852626, -33.8901207], [151.1852693, -33.8901163], [151.1852157, -33.8900272]]]}}, {"type": "Feature", "properties": {"height": 3.2}, "geometry": {"type": "Polygon", "coordinates": [[[151.1853833, -33.8898157], [151.1855067, -33.8897923], [151.1855094, -33.8898012], [151.1855778, -33.889789], [151.185614, -33.889937], [151.1853927, -33.8899715], [151.1853646, -33.8898424], [151.1853874, -33.8898391], [151.1853833, -33.8898157]]]}}, {"type": "Feature", "properties": {"height": 9.0}, "geometry": {"type": "Polygon", "coordinates": [[[151.1844513, -33.8885098], [151.1844955, -33.8885332], [151.1844861, -33.888551], [151.18458, -33.8885944], [151.1845706, -33.88861], [151.1846296, -33.8886323], [151.1846363, -33.8886189], [151.1847101, -33.8886523], [151.1847208, -33.888639], [151.1847758, -33.8886634], [151.1848482, -33.8885577], [151.1845197, -33.8883996], [151.1844513, -33.8885098]]]}}, {"type": "Feature", "properties": {"height": 6.4}, "geometry": {"type": "Polygon", "coordinates": [[[151.1840696, -33.8908409], [151.1840691, -33.8908315], [151.1840913, -33.8908204], [151.1841167, -33.8908199], [151.1841213, -33.890827], [151.1841574, -33.8908276], [151.1841682, -33.8908319], [151.1841729, -33.8908626], [151.1841877, -33.8908692], [151.1841868, -33.8908932], [151.1841987, -33.8909009], [151.1842003, -33.8909282], [151.1842095, -33.8909356], [151.1842213, -33.8909767], [151.1842561, -33.8909696], [151.1842766, -33.8910385], [151.1842357, -33.8910469], [151.1842337, -33.8910647], [151.1842443, -33.8910694], [151.1842413, -33.891096], [151.1842541, -33.8911012], [151.1842525, -33.8911279], [151.1842637, -33.8911319], [151.1842628, -33.8911607], [151.1842727, -33.8911684], [151.1842734, -33.8911944], [151.1841447, -33.8912256], [151.1841345, -33.8911965], [151.1841391, -33.8911866], [151.1841231, -33.8911633], [151.1841319, -33.8911533], [151.1841136, -33.8911306], [151.1841222, -33.8911212], [151.1841041, -33.8910988], [151.1841117, -33.8910901], [151.1841014, -33.8910746], [151.1840599, -33.8910822], [151.1840416, -33.8910125], [151.1840793, -33.8910057], [151.1840794, -33.8909849], [151.1840659, -33.8909635], [151.1840709, -33.8909559], [151.1840533, -33.8909311], [151.1840588, -33.8909198], [151.1840439, -33.8908999], [151.1840521, -33.8908874], [151.1840323, -33.8908589], [151.1840588, -33.8908462], [151.1840696, -33.8908409]]]}}, {"type": "Feature", "properties": {"height": 12.8}, "geometry": {"type": "Polygon", "coordinates": [[[151.1838607, -33.8912183], [151.1839466, -33.8911571], [151.1838943, -33.891097], [151.1838621, -33.891117], [151.1838125, -33.891068], [151.1838393, -33.891048], [151.183795, -33.8910023], [151.1837695, -33.8910168], [151.1837213, -33.8909734], [151.1837467, -33.8909523], [151.1837065, -33.8909099], [151.1836797, -33.8909289], [151.1836596, -33.8909066], [151.1836529, -33.8909122], [151.1835858, -33.8908432], [151.1835389, -33.8908754], [151.1835456, -33.8908843], [151.1835255, -33.8908977], [151.1835188, -33.8908877], [151.1834839, -33.8909099], [151.1835442, -33.8909745], [151.1835845, -33.8909489], [151.1836395, -33.8910035], [151.1836274, -33.8910113], [151.183618, -33.8910001], [151.1835925, -33.8910157], [151.1836555, -33.8910814], [151.183685, -33.8910591], [151.1837347, -33.8911059], [151.1836354, -33.8911771], [151.1833753, -33.8911794], [151.183335, -33.8912116], [151.1833846, -33.8912517], [151.1836301, -33.891245], [151.1836435, -33.8912539], [151.183685, -33.8912495], [151.1837025, -33.8912584], [151.1838165, -33.8911827], [151.1838607, -33.8912183]]]}}, {"type": "Feature", "properties": {"height": 3.2}, "geometry": {"type": "Polygon", "coordinates": [[[151.1834042, -33.8902656], [151.1834415, -33.8903893], [151.1834711, -33.8903832], [151.1836735, -33.8903412], [151.1836443, -33.8902442], [151.1835313, -33.8902676], [151.1835233, -33.8902409], [151.1834042, -33.8902656]]]}}, {"type": "Feature", "properties": {"height": 9.6}, "geometry": {"type": "Polygon", "coordinates": [[[151.1861274, -33.8873355], [151.1863214, -33.8873138], [151.1864142, -33.8879296], [151.1864244, -33.8879754], [151.1863493, -33.8879847], [151.1863179, -33.887943], [151.1862152, -33.8879515], [151.1861653, -33.8875741], [151.1861418, -33.8873969], [151.1861274, -33.8873355]]]}}, {"type": "Feature", "properties": {"height": 10.0}, "geometry": {"type": "Polygon", "coordinates": [[[151.1903707, -33.8869706], [151.1903841, -33.8869597], [151.1904011, -33.8869533], [151.1904198, -33.8869521], [151.1904378, -33.8869562], [151.190458, -33.8869702], [151.1904663, -33.8869841], [151.1904683, -33.8869995], [151.1904638, -33.8870146], [151.190459, -33.8870219], [151.1904459, -33.887033], [151.190429, -33.8870396], [151.1904104, -33.8870411], [151.1903923, -33.8870373], [151.1903829, -33.8870328], [151.1903699, -33.8870216], [151.1903623, -33.8870074], [151.190361, -33.8869919], [151.1903707, -33.8869706]]]}}, {"type": "Feature", "properties": {"height": 3.2}, "geometry": {"type": "Polygon", "coordinates": [[[151.1911914, -33.8890282], [151.1913306, -33.8890905], [151.191456, -33.8890254], [151.191447, -33.8889844], [151.1914586, -33.8889794], [151.1914435, -33.8889052], [151.1913777, -33.8889269], [151.1911914, -33.8890282]]]}}, {"type": "Feature", "properties": {"height": 12.8}, "geometry": {"type": "Polygon", "coordinates": [[[151.1910546, -33.8890839], [151.1910906, -33.8890932], [151.1911306, -33.8891601], [151.1913084, -33.8893939], [151.1913291, -33.8893816], [151.1913941, -33.8893431], [151.1914493, -33.8892853], [151.1915583, -33.8892261], [151.1915848, -33.8892792], [151.1916067, -33.8892989], [151.1916637, -33.8893226], [151.1916395, -33.8893651], [151.1916674, -33.8893897], [151.1916145, -33.8894191], [151.1915712, -33.8894124], [151.1913801, -33.8895195], [151.1913078, -33.889558], [151.1912684, -33.8895961], [151.1912228, -33.8896402], [151.1912169, -33.8896459], [151.1912048, -33.8896295], [151.1911543, -33.8895653], [151.1911472, -33.8895569], [151.1911018, -33.8895005], [151.190906, -33.8892579], [151.1908766, -33.8892214], [151.1908551, -33.8891907], [151.1908726, -33.8891826], [151.1908883, -33.8891843], [151.1909725, -33.8892246], [151.1909907, -33.8892127], [151.1909652, -33.8891179], [151.1910036, -33.889114], [151.1910546, -33.8890839]]]}}, {"type": "Feature", "properties": {"height": 9.0}, "geometry": {"type": "Polygon", "coordinates": [[[151.1905604, -33.8893188], [151.1905897, -33.8893024], [151.1907775, -33.8891975], [151.1908034, -33.8892302], [151.191042, -33.8895308], [151.1910881, -33.8895889], [151.191103, -33.889608], [151.1911467, -33.8896618], [151.1911217, -33.8896736], [151.1910785, -33.8896973], [151.1910902, -33.8897127], [151.1909362, -33.889792], [151.1908695, -33.8898262], [151.1907249, -33.8899047], [151.1906118, -33.889966], [151.1905817, -33.8899499], [151.1905538, -33.8899293], [151.1905638, -33.8899232], [151.1905514, -33.8899081], [151.1905406, -33.889913], [151.1904766, -33.8898327], [151.1906602, -33.8897339], [151.1906038, -33.8894916], [151.1905961, -33.8894767], [151.1905802, -33.8894524], [151.1905777, -33.8894363], [151.1905793, -33.8894217], [151.1905858, -33.8894081], [151.1906013, -33.8893944], [151.190612, -33.8893881], [151.1905604, -33.8893188]]]}}, {"type": "Feature", "properties": {"height": 19.2}, "geometry": {"type": "Polygon", "coordinates": [[[151.1836048, -33.8880428], [151.1841263, -33.8879579], [151.184167, -33.88813], [151.1836454, -33.8882149], [151.1836048, -33.8880428]]]}}, {"type": "Feature", "properties": {"height": 6.4}, "geometry": {"type": "Polygon", "coordinates": [[[151.1854484, -33.8858996], [151.1855042, -33.8859619], [151.1856276, -33.8860684], [151.1856911, -33.8860238], [151.1856786, -33.8860097], [151.1858396, -33.8859547], [151.185814, -33.885905], [151.1858541, -33.8858876], [151.1858287, -33.8858414], [151.185781, -33.8857973], [151.1857288, -33.8857538], [151.1856756, -33.8857222], [151.1856553, -33.8857545], [151.1855962, -33.8857349], [151.1855233, -33.8858635], [151.1855065, -33.8858541], [151.1854484, -33.8858996]]]}}, {"type": "Feature", "properties": {"height": 9.6}, "geometry": {"type": "Polygon", "coordinates": [[[151.1886549, -33.8871768], [151.1886712, -33.8873015], [151.1885735, -33.8873128], [151.1886236, -33.8876325], [151.188724, -33.8876184], [151.1887336, -33.8877403], [151.188457, -33.88777], [151.1883735, -33.8872068], [151.1886549, -33.8871768]]]}}, {"type": "Feature", "properties": {"height": 12.8}, "geometry": {"type": "Polygon", "coordinates": [[[151.1894518, -33.8879639], [151.1894619, -33.8880402], [151.1894686, -33.8880863], [151.1891428, -33.8881222], [151.1891683, -33.8883039], [151.1896378, -33.8882516], [151.1899579, -33.8882159], [151.1899298, -33.8880225], [151.1896306, -33.888056], [151.1896238, -33.8879969], [151.1896931, -33.8879893], [151.189643, -33.8876729], [151.1896391, -33.8876446], [151.1896167, -33.8875099], [151.1895125, -33.8875267], [151.1895208, -33.8876094], [151.1893936, -33.8876248], [151.1893748, -33.8875031], [151.1893462, -33.8875048], [151.1893312, -33.8874987], [151.1893222, -33.8876618], [151.1893365, -33.8877826], [151.189452, -33.8877718], [151.1894838, -33.8879608], [151.1894518, -33.8879639]]]}}, {"type": "Feature", "properties": {"height": 12.8}, "geometry": {"type": "Polygon", "coordinates": [[[151.1861674, -33.8896671], [151.1862919, -33.8896399], [151.1863819, -33.8899236], [151.186714, -33.8900022], [151.1866803, -33.8901004], [151.1863435, -33.8900207], [151.1861, -33.8902241], [151.1860138, -33.890153], [151.1862571, -33.8899497], [151.1861674, -33.8896671]]]}}, {"type": "Feature", "properties": {"height": 12.0}, "geometry": {"type": "Polygon", "coordinates": [[[151.1891023, -33.8875149], [151.1893323, -33.8874897], [151.1893312, -33.8874987], [151.1893222, -33.8876618], [151.1893365, -33.8877826], [151.189348, -33.887819], [151.1891902, -33.8878356], [151.1891658, -33.8876806], [151.1891023, -33.8875149]]]}}, {"type": "Feature", "properties": {"height": 9.6}, "geometry": {"type": "Polygon", "coordinates": [[[151.1827817, -33.8901317], [151.1829594, -33.8900935], [151.1829679, -33.8901153], [151.1832546, -33.890052], [151.1832461, -33.8900291], [151.1832902, -33.8900219], [151.1832794, -33.8898052], [151.1833742, -33.8896695], [151.1834025, -33.8896754], [151.1834339, -33.8896761], [151.183465, -33.8896704], [151.1834969, -33.8896578], [151.1835173, -33.8896379], [151.18371, -33.8896047], [151.1835976, -33.8894302], [151.1834669, -33.8894572], [151.1834727, -33.8894757], [151.1833867, -33.8894945], [151.1834018, -33.8895421], [151.1827294, -33.8896892], [151.1827081, -33.889622], [151.1826747, -33.8896293], [151.1826416, -33.8896366], [151.1826468, -33.8896512], [151.1826343, -33.8896537], [151.1826981, -33.8898833], [151.1828958, -33.8898438], [151.1829425, -33.8899812], [151.1827473, -33.8900253], [151.1827817, -33.8901317]]]}}, {"type": "Feature", "properties": {"height": 25.6}, "geometry": {"type": "Polygon", "coordinates": [[[151.1827294, -33.8896892], [151.1834018, -33.8895421], [151.1833867, -33.8894945], [151.1834727, -33.8894757], [151.1834669, -33.8894572], [151.1833965, -33.8892358], [151.1833856, -33.8891999], [151.1833028, -33.8892173], [151.1832921, -33.8891821], [151.1831705, -33.8892076], [151.1826125, -33.8893272], [151.1826347, -33.8893983], [151.182603, -33.8894051], [151.1826098, -33.8894269], [151.1826415, -33.8895247], [151.1826747, -33.8896293], [151.1827081, -33.889622], [151.1827294, -33.8896892]]]}}, {"type": "Feature", "properties": {"height": 9.6}, "geometry": {"type": "Polygon", "coordinates": [[[151.1827624, -33.8884579], [151.1827798, -33.8885147], [151.1827364, -33.8885238], [151.1827552, -33.8885853], [151.1827658, -33.8885831], [151.1830071, -33.8885329], [151.1829706, -33.8884139], [151.1827624, -33.8884579]]]}}, {"type": "Feature", "properties": {"height": 9.6}, "geometry": {"type": "Polygon", "coordinates": [[[151.1827337, -33.8889042], [151.1827484, -33.8888953], [151.1828652, -33.8888702], [151.182846, -33.8888329], [151.1830038, -33.8888], [151.1829771, -33.8887118], [151.1828966, -33.8887286], [151.1828995, -33.888738], [151.1828397, -33.8887504], [151.1828227, -33.8886943], [151.1828008, -33.8886989], [151.1827658, -33.8885831], [151.1827552, -33.8885853], [151.182647, -33.888606], [151.1827337, -33.8889042]]]}}, {"type": "Feature", "properties": {"height": 12.8}, "geometry": {"type": "Polygon", "coordinates": [[[151.1841603, -33.8899301], [151.1841778, -33.8899797], [151.1839937, -33.8900213], [151.1839882, -33.890002], [151.1838685, -33.8900286], [151.1838825, -33.8900728], [151.1837313, -33.8901071], [151.1837238, -33.8900834], [151.18368, -33.8900927], [151.1835715, -33.8897494], [151.1836454, -33.8897304], [151.1837108, -33.8897166], [151.183722, -33.8897498], [151.1837452, -33.8897443], [151.1837968, -33.8899087], [151.18381, -33.8899144], [151.1840984, -33.889847], [151.1841088, -33.889852], [151.1841365, -33.889847], [151.1841522, -33.8898661], [151.1841623, -33.8898874], [151.1841641, -33.8899099], [151.1841603, -33.8899301]]]}}, {"type": "Feature", "properties": {"height": 10.0}, "geometry": {"type": "Polygon", "coordinates": [[[151.1826223, -33.8889897], [151.182768, -33.8889584], [151.1827484, -33.8888953], [151.1828652, -33.8888702], [151.1828806, -33.8889196], [151.183068, -33.8888793], [151.1831705, -33.8892076], [151.1826125, -33.8893272], [151.1826347, -33.8893983], [151.182603, -33.8894051], [151.1826098, -33.8894269], [151.1825744, -33.889435], [151.1825698, -33.8894199], [151.1825474, -33.8894252], [151.1825356, -33.8893906], [151.1825943, -33.889378], [151.1825724, -33.8893075], [151.1825058, -33.8893217], [151.1824613, -33.8891781], [151.1826468, -33.8891384], [151.1826107, -33.889022], [151.182631, -33.8890176], [151.1826223, -33.8889897]]]}}, {"type": "Feature", "properties": {"height": 16.0}, "geometry": {"type": "Polygon", "coordinates": [[[151.1833367, -33.8884168], [151.1834514, -33.8886032], [151.183313, -33.8886343], [151.1831772, -33.8886649], [151.183169, -33.8886355], [151.1830252, -33.8887009], [151.1829771, -33.8887118], [151.1830038, -33.8888], [151.1830332, -33.8887943], [151.183068, -33.8888793], [151.1831705, -33.8892076], [151.1832921, -33.8891821], [151.1833028, -33.8892173], [151.1833856, -33.8891999], [151.1833641, -33.8888647], [151.1835234, -33.8888244], [151.1835331, -33.889206], [151.1833965, -33.8892358], [151.1834669, -33.8894572], [151.1835976, -33.8894302], [151.18371, -33.8896047], [151.183767, -33.889577], [151.1837731, -33.889587], [151.1838575, -33.8895449], [151.1838632, -33.8895548], [151.1839571, -33.8895127], [151.183867, -33.8893739], [151.1838392, -33.8893211], [151.1838181, -33.8892699], [151.1838013, -33.8892205], [151.183791, -33.889152], [151.1837832, -33.8887219], [151.1837754, -33.8886701], [151.1837603, -33.8886203], [151.1837365, -33.8885728], [151.1835812, -33.8883281], [151.1834923, -33.8883665], [151.1834871, -33.8883577], [151.1834003, -33.8883991], [151.1833948, -33.8883903], [151.1833367, -33.8884168]]]}}, {"type": "Feature", "properties": {"height": 10.0}, "geometry": {"type": "Polygon", "coordinates": [[[151.191042, -33.8895308], [151.1911018, -33.8895005], [151.1911472, -33.8895569], [151.1910881, -33.8895889], [151.191042, -33.8895308]]]}}, {"type": "Feature", "properties": {"height": 10.0}, "geometry": {"type": "Polygon", "coordinates": [[[151.1908018, -33.8838288], [151.1905996, -33.8836925], [151.1906672, -33.8836234], [151.1908693, -33.8837598], [151.1908018, -33.8838288]]]}}, {"type": "Feature", "properties": {"height": 10.0}, "geometry": {"type": "Polygon", "coordinates": [[[151.1909779, -33.8837335], [151.191093, -33.8838154], [151.1909502, -33.8839537], [151.1909719, -33.8839691], [151.1909157, -33.8840235], [151.190779, -33.8839263], [151.1909779, -33.8837335]]]}}, {"type": "Feature", "properties": {"height": 10.0}, "geometry": {"type": "Polygon", "coordinates": [[[151.1905619, -33.8836733], [151.1907175, -33.8837779], [151.1907014, -33.8837913], [151.1907336, -33.8838136], [151.1907014, -33.8838514], [151.1906638, -33.8838314], [151.1906573, -33.8838453], [151.1905047, -33.8837438], [151.1905619, -33.8836733]]]}}, {"type": "Feature", "properties": {"height": 10.0}, "geometry": {"type": "Polygon", "coordinates": [[[151.1920407, -33.8839543], [151.1921601, -33.8840335], [151.1920634, -33.8841339], [151.191944, -33.8840547], [151.1920407, -33.8839543]]]}}, {"type": "Feature", "properties": {"height": 19.2}, "geometry": {"type": "Polygon", "coordinates": [[[151.1839418, -33.8868821], [151.1837979, -33.8869733], [151.1828337, -33.8876899], [151.1829566, -33.8878074], [151.1830521, -33.8877449], [151.1831206, -33.8878105], [151.183034, -33.8878711], [151.1831286, -33.8879594], [151.1841873, -33.8871892], [151.1840954, -33.8871083], [151.1840312, -33.8871523], [151.1839513, -33.8870791], [151.184065, -33.8869947], [151.1839418, -33.8868821]]]}}, {"type": "Feature", "properties": {"height": 10.0}, "geometry": {"type": "Polygon", "coordinates": [[[151.1844499, -33.8840765], [151.1847595, -33.8840194], [151.1845648, -33.8837794], [151.1843902, -33.8838834], [151.1844499, -33.8840765]]]}}, {"type": "Feature", "properties": {"height": 6.4}, "geometry": {"type": "Polygon", "coordinates": [[[151.1840677, -33.8875577], [151.1841417, -33.8878563], [151.1841231, -33.8878594], [151.1839, -33.887896], [151.1838402, -33.8876522], [151.1839708, -33.8876285], [151.1839554, -33.887576], [151.1840677, -33.8875577]]]}}, {"type": "Feature", "properties": {"height": 35.2}, "geometry": {"type": "Polygon", "coordinates": [[[151.1918119, -33.8892759], [151.1919447, -33.8892083], [151.191927, -33.8891847], [151.1918648, -33.8891018], [151.1918485, -33.8890808], [151.1918603, -33.8890745], [151.1917562, -33.8889475], [151.1917224, -33.8889077], [151.1917086, -33.8889147], [151.1916216, -33.8888051], [151.1915951, -33.8887762], [151.1914709, -33.8888438], [151.1918119, -33.8892759]]]}}, {"type": "Feature", "properties": {"height": 9.6}, "geometry": {"type": "Polygon", "coordinates": [[[151.1869147, -33.8885552], [151.1876191, -33.8884763], [151.1876419, -33.888617], [151.1879853, -33.8885785], [151.1879292, -33.8882338], [151.1868815, -33.8883511], [151.1869147, -33.8885552]]]}}, {"type": "Feature", "properties": {"height": 10.0}, "geometry": {"type": "Polygon", "coordinates": [[[151.1847153, -33.8852445], [151.1850126, -33.885207], [151.1850975, -33.8856709], [151.1848461, -33.8857026], [151.1847962, -33.8854298], [151.1847503, -33.8854356], [151.1847153, -33.8852445]]]}}, {"type": "Feature", "properties": {"height": 10.0}, "geometry": {"type": "Polygon", "coordinates": [[[151.1886669, -33.884877], [151.1887874, -33.8848833], [151.1887843, -33.8849238], [151.1886638, -33.8849175], [151.1886669, -33.884877]]]}}, {"type": "Feature", "properties": {"height": 10.0}, "geometry": {"type": "Polygon", "coordinates": [[[151.1884246, -33.8849032], [151.1884906, -33.884905], [151.1884881, -33.8849698], [151.1884221, -33.884968], [151.1884246, -33.8849032]]]}}, {"type": "Feature", "properties": {"height": 10.0}, "geometry": {"type": "Polygon", "coordinates": [[[151.1885111, -33.8849286], [151.1885095, -33.8849666], [151.1885627, -33.8849682], [151.1885643, -33.8849301], [151.1885111, -33.8849286]]]}}, {"type": "Feature", "properties": {"height": 10.0}, "geometry": {"type": "Polygon", "coordinates": [[[151.1879971, -33.884999], [151.1881277, -33.8849859], [151.1881356, -33.88504], [151.188005, -33.8850532], [151.1879971, -33.884999]]]}}, {"type": "Feature", "properties": {"height": 9.6}, "geometry": {"type": "Polygon", "coordinates": [[[151.1828201, -33.884802], [151.1829622, -33.8847437], [151.1831266, -33.8851994], [151.1831437, -33.8852469], [151.1829557, -33.8852825], [151.1828201, -33.884802]]]}}, {"type": "Feature", "properties": {"height": 9.6}, "geometry": {"type": "Polygon", "coordinates": [[[151.1831266, -33.8851994], [151.1832763, -33.8851628], [151.1831097, -33.8847097], [151.1829622, -33.8847437], [151.1831266, -33.8851994]]]}}, {"type": "Feature", "properties": {"height": 6.4}, "geometry": {"type": "Polygon", "coordinates": [[[151.1839153, -33.8851009], [151.184261, -33.8850355], [151.184276, -33.8850282], [151.1842909, -33.885017], [151.1843023, -33.8850034], [151.1843094, -33.8849893], [151.1843123, -33.8849751], [151.1843115, -33.884958], [151.1843051, -33.8849427], [151.1842945, -33.8849285], [151.1842817, -33.8849179], [151.1842668, -33.8849096], [151.1842447, -33.8849037], [151.184222, -33.8849002], [151.1841964, -33.8848931], [151.1841665, -33.8848813], [151.1841367, -33.8848689], [151.1841054, -33.8848512], [151.1840756, -33.8848276], [151.1840514, -33.8848016], [151.1840258, -33.8847668], [151.1841374, -33.8847108], [151.1839135, -33.8843986], [151.1838623, -33.8843784], [151.1837419, -33.884406], [151.183539, -33.8844926], [151.1837495, -33.8848202], [151.1839153, -33.8851009]]]}}, {"type": "Feature", "properties": {"height": 6.0}, "geometry": {"type": "Polygon", "coordinates": [[[151.1845861, -33.8849802], [151.1848203, -33.8849285], [151.184816, -33.8848488], [151.1848096, -33.8847653], [151.1847898, -33.8847657], [151.1847551, -33.8842816], [151.1847743, -33.8842794], [151.1847691, -33.8841979], [151.1847061, -33.88421], [151.1841725, -33.8843129], [151.1841518, -33.8843561], [151.1841536, -33.8843713], [151.1841619, -33.8843864], [151.1842047, -33.884447], [151.184478, -33.8848317], [151.1845861, -33.8849802]]]}}, {"type": "Feature", "properties": {"height": 6.4}, "geometry": {"type": "Polygon", "coordinates": [[[151.1848203, -33.8849285], [151.1850175, -33.8848861], [151.1850726, -33.8844535], [151.1849652, -33.8844571], [151.1849681, -33.8845114], [151.1850102, -33.8845089], [151.1850102, -33.8845318], [151.1848056, -33.8845451], [151.1848244, -33.8848487], [151.184816, -33.8848488], [151.1848203, -33.8849285]]]}}, {"type": "Feature", "properties": {"height": 16.0}, "geometry": {"type": "Polygon", "coordinates": [[[151.1850966, -33.884613], [151.185068, -33.8848402], [151.1851522, -33.8848475], [151.1851651, -33.8847451], [151.1851716, -33.8847457], [151.1851873, -33.8846209], [151.1850966, -33.884613]]]}}, {"type": "Feature", "properties": {"height": 16.0}, "geometry": {"type": "Polygon", "coordinates": [[[151.1865206, -33.8839918], [151.1863857, -33.8843193], [151.1865055, -33.8843604], [151.1866224, -33.8841018], [151.1865206, -33.8839918]]]}}, {"type": "Feature", "properties": {"height": 12.8}, "geometry": {"type": "Polygon", "coordinates": [[[151.1866224, -33.8841018], [151.1866965, -33.8841819], [151.1866407, -33.8843088], [151.1866163, -33.8843644], [151.1866358, -33.8843711], [151.1866204, -33.8843999], [151.1865055, -33.8843604], [151.1866224, -33.8841018]]]}}, {"type": "Feature", "properties": {"height": 6.4}, "geometry": {"type": "Polygon", "coordinates": [[[151.1866407, -33.8843088], [151.186689, -33.8843654], [151.1866626, -33.8844143], [151.1866204, -33.8843999], [151.1866358, -33.8843711], [151.1866163, -33.8843644], [151.1866407, -33.8843088]]]}}, {"type": "Feature", "properties": {"height": 9.6}, "geometry": {"type": "Polygon", "coordinates": [[[151.1866626, -33.8844143], [151.186689, -33.8843654], [151.1866407, -33.8843088], [151.1866965, -33.8841819], [151.1869362, -33.8844409], [151.1869446, -33.8844528], [151.1869471, -33.8844702], [151.1869421, -33.8844863], [151.1866626, -33.8844143]]]}}, {"type": "Feature", "properties": {"height": 10.0}, "geometry": {"type": "Polygon", "coordinates": [[[151.184151, -33.8862603], [151.1841282, -33.8867051], [151.1842581, -33.8867105], [151.1842614, -33.8866647], [151.1843815, -33.8866701], [151.1844091, -33.8862023], [151.184289, -33.8861983], [151.1842922, -33.8861605], [151.1842776, -33.8861538], [151.184151, -33.8862603]]]}}, {"type": "Feature", "properties": {"height": 9.6}, "geometry": {"type": "Polygon", "coordinates": [[[151.1917562, -33.8889475], [151.1918721, -33.8888835], [151.1917613, -33.8887308], [151.1916216, -33.8888051], [151.1917086, -33.8889147], [151.1917224, -33.8889077], [151.1917562, -33.8889475]]]}}, {"type": "Feature", "properties": {"height": 28.8}, "geometry": {"type": "Polygon", "coordinates": [[[151.1918648, -33.8891018], [151.1919901, -33.8890328], [151.1920469, -33.889116], [151.191927, -33.8891847], [151.1918648, -33.8891018]]]}}, {"type": "Feature", "properties": {"height": 25.6}, "geometry": {"type": "Polygon", "coordinates": [[[151.1908742, -33.8885703], [151.1908791, -33.8886029], [151.1909628, -33.8885942], [151.1909671, -33.8886228], [151.1909829, -33.8886212], [151.1909856, -33.8886394], [151.1909887, -33.88866], [151.1908916, -33.8886701], [151.1908948, -33.8886916], [151.1908211, -33.8886992], [151.1908246, -33.8887225], [151.1907475, -33.8887305], [151.1907506, -33.8887511], [151.1906773, -33.8887587], [151.190681, -33.8887837], [151.1906032, -33.8887917], [151.1906066, -33.888814], [151.1905328, -33.8888217], [151.1905362, -33.8888446], [151.1904617, -33.8888523], [151.190465, -33.8888745], [151.19038, -33.8888833], [151.1903089, -33.8888907], [151.190274, -33.8886589], [151.1903444, -33.8886516], [151.1903405, -33.8886256], [151.1908742, -33.8885703]]]}}, {"type": "Feature", "properties": {"height": 16.0}, "geometry": {"type": "Polygon", "coordinates": [[[151.1893879, -33.8890802], [151.1899255, -33.8890184], [151.1900047, -33.8894934], [151.189467, -33.8895551], [151.1893879, -33.8890802]]]}}, {"type": "Feature", "properties": {"height": 10.0}, "geometry": {"type": "Polygon", "coordinates": [[[151.1880094, -33.8886287], [151.1880362, -33.8888625], [151.1876741, -33.8888781], [151.187709, -33.8891141], [151.1868627, -33.8892399], [151.1867742, -33.8887645], [151.1880094, -33.8886287]]]}}, {"type": "Feature", "properties": {"height": 10.0}, "geometry": {"type": "Polygon", "coordinates": [[[151.1909347, -33.8911867], [151.1909905, -33.8911678], [151.1910519, -33.8913013], [151.1909968, -33.8913187], [151.1909829, -33.8912862], [151.1909347, -33.8911867]]]}}, {"type": "Feature", "properties": {"height": 10.0}, "geometry": {"type": "Polygon", "coordinates": [[[151.1909347, -33.8911867], [151.1908697, -33.8912083], [151.1909439, -33.8913618], [151.1909877, -33.8913472], [151.1909616, -33.8912933], [151.1909829, -33.8912862], [151.1909347, -33.8911867]]]}}, {"type": "Feature", "properties": {"height": 10.0}, "geometry": {"type": "Polygon", "coordinates": [[[151.1870964, -33.8907059], [151.1871616, -33.8907004], [151.1871627, -33.8907092], [151.1871817, -33.8907076], [151.1871971, -33.8908339], [151.1871129, -33.890841], [151.1870964, -33.8907059]]]}}, {"type": "Feature", "properties": {"height": 10.0}, "geometry": {"type": "Polygon", "coordinates": [[[151.187454, -33.8907205], [151.1875314, -33.8907098], [151.187545, -33.890777], [151.1874676, -33.8907877], [151.187454, -33.8907205]]]}}, {"type": "Feature", "properties": {"height": 10.0}, "geometry": {"type": "Polygon", "coordinates": [[[151.1896259, -33.8883326], [151.1896271, -33.8883287], [151.1896267, -33.8883248], [151.1896247, -33.8883211], [151.1896213, -33.8883183], [151.189617, -33.8883166], [151.1896122, -33.8883162], [151.1896076, -33.8883172], [151.1896036, -33.8883194], [151.1896011, -33.8883222], [151.1895996, -33.8883256], [151.1895995, -33.8883291], [151.1896007, -33.8883325], [151.189603, -33.8883355], [151.1896063, -33.8883377], [151.1896103, -33.8883389], [151.1896146, -33.8883392], [151.1896192, -33.8883381], [151.1896231, -33.8883358], [151.1896259, -33.8883326]]]}}, {"type": "Feature", "properties": {"height": 10.0}, "geometry": {"type": "Polygon", "coordinates": [[[151.1862033, -33.8903163], [151.1862618, -33.8903284], [151.1862441, -33.8903769], [151.1861884, -33.8903659], [151.1862033, -33.8903163]]]}}, {"type": "Feature", "properties": {"height": 10.0}, "geometry": {"type": "Polygon", "coordinates": [[[151.1860991, -33.8903755], [151.1858881, -33.8904092], [151.1859313, -33.8905954], [151.1860144, -33.8905821], [151.1860252, -33.8906289], [151.1859624, -33.890639], [151.1859669, -33.8906587], [151.1860396, -33.8906471], [151.1860675, -33.8907676], [151.1861287, -33.8907579], [151.1861241, -33.8907382], [151.1861388, -33.8907358], [151.1861329, -33.8907104], [151.1861752, -33.8907036], [151.1860991, -33.8903755]]]}}, {"type": "Feature", "properties": {"height": 10.0}, "geometry": {"type": "Polygon", "coordinates": [[[151.1859467, -33.8912178], [151.1858816, -33.8912238], [151.185885, -33.8912492], [151.1857784, -33.891259], [151.1857556, -33.8910888], [151.1859273, -33.891073], [151.1859467, -33.8912178]]]}}, {"type": "Feature", "properties": {"height": 10.0}, "geometry": {"type": "Polygon", "coordinates": [[[151.1881853, -33.8907433], [151.1881569, -33.8908084], [151.1883055, -33.8908531], [151.1883339, -33.890788], [151.1881853, -33.8907433]]]}}, {"type": "Feature", "properties": {"height": 10.0}, "geometry": {"type": "Polygon", "coordinates": [[[151.1880987, -33.8907941], [151.1880995, -33.890805], [151.1881258, -33.8908037], [151.1881284, -33.89084], [151.1881049, -33.8908412], [151.1881061, -33.8908565], [151.1879239, -33.8908657], [151.1879193, -33.8908032], [151.1880987, -33.8907941]]]}}, {"type": "Feature", "properties": {"height": 10.0}, "geometry": {"type": "Polygon", "coordinates": [[[151.1886944, -33.8854047], [151.1887476, -33.8853987], [151.1887391, -33.8853465], [151.1887736, -33.8853438], [151.1887856, -33.8853514], [151.1887926, -33.8853754], [151.1887672, -33.8853774], [151.1887852, -33.885518], [151.1887118, -33.8855265], [151.1886944, -33.8854047]]]}}, {"type": "Feature", "properties": {"height": 10.0}, "geometry": {"type": "Polygon", "coordinates": [[[151.1841657, -33.8896964], [151.1843059, -33.8896651], [151.1843682, -33.8898577], [151.184228, -33.8898889], [151.1841657, -33.8896964]]]}}, {"type": "Feature", "properties": {"height": 3.2}, "geometry": {"type": "Polygon", "coordinates": [[[151.1918746, -33.8858456], [151.1919713, -33.8859428], [151.191959, -33.8859517], [151.1919489, -33.8859612], [151.1919427, -33.8859726], [151.1919382, -33.8859882], [151.1919351, -33.8860314], [151.191936, -33.8860847], [151.191942, -33.8861344], [151.1919567, -33.8861839], [151.1919767, -33.8862347], [151.1920015, -33.8862746], [151.1920298, -33.8863106], [151.1920664, -33.8863366], [151.1921072, -33.8863626], [151.1921629, -33.8863934], [151.1922228, -33.8864163], [151.192289, -33.8864293], [151.1923546, -33.8864397], [151.1923522, -33.8864589], [151.1923692, -33.8864599], [151.19237, -33.8864509], [151.1923876, -33.8864495], [151.1924043, -33.8864456], [151.1924196, -33.8864396], [151.192433, -33.8864306], [151.1925253, -33.8865242], [151.1924909, -33.8865416], [151.1924541, -33.8865531], [151.1924049, -33.8865634], [151.1923519, -33.8865694], [151.1923631, -33.8865002], [151.1923458, -33.8864983], [151.192335, -33.8865708], [151.192267, -33.8865613], [151.1922052, -33.8865469], [151.1921432, -33.8865258], [151.1920858, -33.8865022], [151.192033, -33.8864725], [151.1919886, -33.8864423], [151.1919532, -33.886413], [151.1919241, -33.8863865], [151.1919051, -33.8863672], [151.1918872, -33.8863471], [151.1918603, -33.8863108], [151.1918384, -33.8862747], [151.191814, -33.8862214], [151.1917921, -33.8861644], [151.1917827, -33.8861075], [151.1917801, -33.8860512], [151.1917868, -33.8859958], [151.1918007, -33.8859492], [151.19182, -33.885909], [151.1918441, -33.8858773], [151.1918746, -33.8858456]]]}}, {"type": "Feature", "properties": {"height": 10.0}, "geometry": {"type": "Polygon", "coordinates": [[[151.1870458, -33.8842073], [151.1872347, -33.8842131], [151.1872299, -33.8843191], [151.1871665, -33.8843171], [151.1871653, -33.8843433], [151.1871026, -33.8843414], [151.1871038, -33.8843142], [151.187041, -33.8843123], [151.1870458, -33.8842073]]]}}, {"type": "Feature", "properties": {"height": 10.0}, "geometry": {"type": "Polygon", "coordinates": [[[151.1868711, -33.8842034], [151.1869139, -33.8842047], [151.1869133, -33.8842178], [151.1869885, -33.8842202], [151.1869891, -33.8842081], [151.1870436, -33.8842098], [151.1870459, -33.8841596], [151.1870152, -33.8841587], [151.187019, -33.8840755], [151.1868772, -33.884071], [151.1868711, -33.8842034]]]}}, {"type": "Feature", "properties": {"height": 10.0}, "geometry": {"type": "Polygon", "coordinates": [[[151.1880746, -33.8857223], [151.1881996, -33.8857277], [151.1881952, -33.8857975], [151.1880702, -33.8857921], [151.1880746, -33.8857223]]]}}, {"type": "Feature", "properties": {"height": 10.0}, "geometry": {"type": "Polygon", "coordinates": [[[151.1884059, -33.8868896], [151.1884297, -33.8870187], [151.1882827, -33.8870373], [151.1882743, -33.8869914], [151.1882533, -33.886994], [151.188238, -33.886911], [151.1884059, -33.8868896]]]}}, {"type": "Feature", "properties": {"height": 10.0}, "geometry": {"type": "Polygon", "coordinates": [[[151.1883734, -33.8836547], [151.1884168, -33.8836846], [151.1883707, -33.8837316], [151.1883974, -33.88375], [151.188359, -33.8837909], [151.1882925, -33.8837505], [151.1882304, -33.8838126], [151.1881967, -33.8837903], [151.1883211, -33.8836703], [151.188343, -33.883685], [151.1883734, -33.8836547]]]}}, {"type": "Feature", "properties": {"height": 10.0}, "geometry": {"type": "Polygon", "coordinates": [[[151.1884721, -33.8838067], [151.188524, -33.8837538], [151.1884578, -33.883707], [151.188399, -33.8837688], [151.1884395, -33.8837997], [151.188409, -33.8838304], [151.1884463, -33.8838331], [151.1884721, -33.8838067]]]}}, {"type": "Feature", "properties": {"height": 10.0}, "geometry": {"type": "Polygon", "coordinates": [[[151.188524, -33.8837538], [151.1884721, -33.8838067], [151.188528, -33.8838443], [151.188579, -33.8837923], [151.188524, -33.8837538]]]}}, {"type": "Feature", "properties": {"height": 28.8}, "geometry": {"type": "Polygon", "coordinates": [[[151.1841829, -33.8889386], [151.1845365, -33.8888603], [151.1846711, -33.8888552], [151.1849145, -33.8888271], [151.185114, -33.8888126], [151.1851216, -33.8888363], [151.1851329, -33.8888714], [151.1851506, -33.8889268], [151.1851587, -33.8889518], [151.1851667, -33.8889768], [151.1851778, -33.8890115], [151.1851923, -33.8890566], [151.1851958, -33.8890676], [151.1847515, -33.8891488], [151.1845642, -33.8890329], [151.1844246, -33.8890604], [151.1844854, -33.8892602], [151.1843062, -33.8893501], [151.1841829, -33.8889386]]]}}, {"type": "Feature", "properties": {"height": 10.0}, "geometry": {"type": "Polygon", "coordinates": [[[151.1913679, -33.8842701], [151.1914292, -33.8842128], [151.1914449, -33.8842245], [151.1915077, -33.8841659], [151.1914184, -33.8840999], [151.1913775, -33.884138], [151.1912004, -33.8840072], [151.1911172, -33.8840848], [151.1913679, -33.8842701]]]}}, {"type": "Feature", "properties": {"height": 10.0}, "geometry": {"type": "Polygon", "coordinates": [[[151.1913888, -33.8839983], [151.191427, -33.8839589], [151.1914809, -33.883995], [151.1914427, -33.8840344], [151.1913888, -33.8839983]]]}}, {"type": "Feature", "properties": {"height": 10.0}, "geometry": {"type": "Polygon", "coordinates": [[[151.1916778, -33.8843191], [151.1917121, -33.8842854], [151.1917733, -33.8843282], [151.1918626, -33.8842404], [151.1919041, -33.8842694], [151.1917804, -33.884391], [151.1916778, -33.8843191]]]}}, {"type": "Feature", "properties": {"height": 10.0}, "geometry": {"type": "Polygon", "coordinates": [[[151.1918465, -33.884395], [151.1919416, -33.8842978], [151.1920807, -33.8843917], [151.1920505, -33.8844226], [151.1919958, -33.8843857], [151.1919628, -33.8844193], [151.1919706, -33.8844246], [151.1919387, -33.8844571], [151.1918465, -33.884395]]]}}, {"type": "Feature", "properties": {"height": 10.0}, "geometry": {"type": "Polygon", "coordinates": [[[151.1919881, -33.8844632], [151.1920916, -33.8844506], [151.1921086, -33.8845467], [151.1920033, -33.8845582], [151.1919919, -33.8844863], [151.1919881, -33.8844632]]]}}, {"type": "Feature", "properties": {"height": 10.0}, "geometry": {"type": "Polygon", "coordinates": [[[151.1919919, -33.8844863], [151.1918948, -33.884497], [151.1919075, -33.8845688], [151.1920033, -33.8845582], [151.1919919, -33.8844863]]]}}, {"type": "Feature", "properties": {"height": 10.0}, "geometry": {"type": "Polygon", "coordinates": [[[151.1918099, -33.8844892], [151.1918036, -33.8844506], [151.1918421, -33.8844463], [151.1918917, -33.8844792], [151.1918948, -33.884497], [151.1919075, -33.8845688], [151.1917682, -33.8845857], [151.1917061, -33.8845718], [151.1916068, -33.8845034], [151.1917134, -33.8843968], [151.1917588, -33.8844281], [151.1917288, -33.8844582], [151.1917662, -33.884484], [151.1917678, -33.8844939], [151.1918099, -33.8844892]]]}}, {"type": "Feature", "properties": {"height": 10.0}, "geometry": {"type": "Polygon", "coordinates": [[[151.1914524, -33.8842547], [151.1915003, -33.8842878], [151.1915821, -33.8842061], [151.1916592, -33.8842593], [151.1915732, -33.8843451], [151.1915824, -33.8843514], [151.191637, -33.8842968], [151.1916633, -33.884315], [151.1915377, -33.8844405], [151.1913772, -33.8843297], [151.1914524, -33.8842547]]]}}, {"type": "Feature", "properties": {"height": 9.6}, "geometry": {"type": "Polygon", "coordinates": [[[151.190744, -33.8850868], [151.1907652, -33.8852095], [151.1907968, -33.8853976], [151.1906942, -33.8854096], [151.1904395, -33.8854383], [151.1903972, -33.8854431], [151.1902423, -33.8854608], [151.1902174, -33.8853106], [151.1902091, -33.8852612], [151.1901684, -33.8852659], [151.1901522, -33.8851697], [151.1901838, -33.885166], [151.1901812, -33.8851506], [151.1905194, -33.8851113], [151.1905171, -33.885098], [151.1906708, -33.8850801], [151.1906733, -33.8850951], [151.190744, -33.8850868]]]}}, {"type": "Feature", "properties": {"height": 10.0}, "geometry": {"type": "Polygon", "coordinates": [[[151.1899912, -33.8867849], [151.1900796, -33.8867742], [151.1900954, -33.8868807], [151.190007, -33.8868913], [151.1899912, -33.8867849]]]}}, {"type": "Feature", "properties": {"height": 10.0}, "geometry": {"type": "Polygon", "coordinates": [[[151.1859253, -33.8897512], [151.1858805, -33.8897613], [151.1858421, -33.8897829], [151.1858142, -33.8898137], [151.1857999, -33.8898504], [151.1858006, -33.8898889], [151.1858165, -33.8899251], [151.1858444, -33.8899542], [151.1858849, -33.8899757], [151.1859174, -33.8899817], [151.1859204, -33.8900268], [151.1859372, -33.8900279], [151.1859499, -33.8900613], [151.1859338, -33.8900741], [151.1859461, -33.8901036], [151.1860178, -33.8900745], [151.1859898, -33.8900137], [151.1859897, -33.8899389], [151.1859941, -33.8899033], [151.1860066, -33.8898668], [151.186021, -33.8898384], [151.1860492, -33.8897942], [151.186092, -33.8897513], [151.1861457, -33.8897185], [151.1861209, -33.8896812], [151.1860842, -33.8896762], [151.186033, -33.8897062], [151.1859871, -33.8897565], [151.1859253, -33.8897512]]]}}, {"type": "Feature", "properties": {"height": 10.0}, "geometry": {"type": "Polygon", "coordinates": [[[151.1896664, -33.8898381], [151.1896243, -33.8898845], [151.1896511, -33.8899009], [151.1896176, -33.8899398], [151.1895417, -33.889898], [151.1895529, -33.8898844], [151.1895068, -33.8898576], [151.1895854, -33.8897683], [151.1896185, -33.8897878], [151.1896029, -33.8898031], [151.1896664, -33.8898381]]]}}, {"type": "Feature", "properties": {"height": 10.0}, "geometry": {"type": "Polygon", "coordinates": [[[151.1876454, -33.8845873], [151.1876456, -33.8846011], [151.1876874, -33.8846007], [151.1876872, -33.8845868], [151.1876454, -33.8845873]]]}}, {"type": "Feature", "properties": {"height": 10.0}, "geometry": {"type": "Polygon", "coordinates": [[[151.1876984, -33.8845873], [151.1876992, -33.8846011], [151.1877409, -33.8845995], [151.1877401, -33.8845857], [151.1876984, -33.8845873]]]}}, {"type": "Feature", "properties": {"height": 3.2}, "geometry": {"type": "Polygon", "coordinates": [[[151.1842391, -33.8886416], [151.1840423, -33.8886837], [151.1840639, -33.8887533], [151.184261, -33.8887111], [151.1842559, -33.8886947], [151.1842649, -33.8886927], [151.1842533, -33.8886552], [151.1842448, -33.8886597], [151.1842391, -33.8886416]]]}}, {"type": "Feature", "properties": {"height": 6.4}, "geometry": {"type": "Polygon", "coordinates": [[[151.1894578, -33.8874122], [151.1896007, -33.887397], [151.1895798, -33.8872681], [151.1895978, -33.8872663], [151.1895936, -33.8872382], [151.1895901, -33.8872065], [151.1895708, -33.8872085], [151.1895514, -33.8870821], [151.1895396, -33.8870814], [151.1895242, -33.8869832], [151.1895585, -33.8869796], [151.1895368, -33.8868471], [151.189499, -33.8868514], [151.1894867, -33.8868441], [151.1894538, -33.8868477], [151.1894451, -33.8868575], [151.1893534, -33.8868678], [151.189341, -33.8868606], [151.189308, -33.8868643], [151.1892978, -33.8868741], [151.1891853, -33.8868869], [151.1891773, -33.8868772], [151.1891601, -33.8868793], [151.1891356, -33.8868815], [151.1891316, -33.8868934], [151.1890163, -33.886907], [151.1890029, -33.8868984], [151.188969, -33.8869032], [151.1889568, -33.886914], [151.1888962, -33.8869212], [151.1888839, -33.8869129], [151.1888482, -33.8869168], [151.1888368, -33.8869282], [151.1888073, -33.8869326], [151.1888274, -33.8870578], [151.1888531, -33.8870551], [151.1888753, -33.8871693], [151.1888616, -33.8871711], [151.1889109, -33.8874609], [151.1890403, -33.8874461], [151.1890294, -33.8873784], [151.1891738, -33.8873618], [151.1891823, -33.8874136], [151.1892257, -33.887439], [151.1892761, -33.8874325], [151.1893068, -33.8873996], [151.1893, -33.887348], [151.1894125, -33.8873348], [151.1894156, -33.8873606], [151.1894478, -33.8873563], [151.1894578, -33.8874122]]]}}, {"type": "Feature", "properties": {"height": 3.0}, "geometry": {"type": "Polygon", "coordinates": [[[151.1904128, -33.8909156], [151.1907229, -33.8907416], [151.1906456, -33.8906452], [151.190687, -33.8906224], [151.1906164, -33.890537], [151.1906609, -33.8905107], [151.1904295, -33.8902284], [151.1903864, -33.8902536], [151.190317, -33.8901715], [151.1902723, -33.8901957], [151.1902478, -33.8901659], [151.1902391, -33.8901709], [151.1901365, -33.8900479], [151.1900271, -33.89009], [151.1899486, -33.890143], [151.1899366, -33.8901286], [151.1898441, -33.8901809], [151.1898653, -33.8902084], [151.1897228, -33.8903139], [151.1898384, -33.8904492], [151.1898701, -33.89043], [151.1902372, -33.8908765], [151.1903353, -33.8908228], [151.1904128, -33.8909156]]]}}, {"type": "Feature", "properties": {"height": 9.6}, "geometry": {"type": "Polygon", "coordinates": [[[151.1895796, -33.8910928], [151.1898152, -33.8912564], [151.189982, -33.891097], [151.1897504, -33.8909357], [151.1897048, -33.8909794], [151.1896723, -33.890957], [151.1895954, -33.8910191], [151.1896298, -33.891045], [151.1895796, -33.8910928]]]}}, {"type": "Feature", "properties": {"height": 12.8}, "geometry": {"type": "Polygon", "coordinates": [[[151.1861835, -33.886527], [151.1863444, -33.8865192], [151.1863458, -33.8865526], [151.1867079, -33.8865326], [151.1867186, -33.8866461], [151.1866931, -33.8866473], [151.1867038, -33.8868499], [151.1867387, -33.8868488], [151.1867481, -33.8869634], [151.1866207, -33.8869601], [151.1866207, -33.8869813], [151.1864383, -33.8869913], [151.1864356, -33.8870024], [151.1861553, -33.8870191], [151.186154, -33.8870057], [151.1859622, -33.8870169], [151.1859434, -33.8870024], [151.1859179, -33.886979], [151.1859233, -33.8869623], [151.1858844, -33.886959], [151.1858777, -33.886871], [151.1858482, -33.886871], [151.1858442, -33.8867753], [151.1858764, -33.8867753], [151.1858723, -33.8866818], [151.1858267, -33.8866818], [151.185812, -33.8866651], [151.1858133, -33.8866495], [151.1857463, -33.8866506], [151.1857449, -33.886576], [151.1858254, -33.8865749], [151.1858254, -33.8865159], [151.1859595, -33.8865126], [151.1859582, -33.8865727], [151.1861875, -33.8865604], [151.1861835, -33.886527]]]}}, {"type": "Feature", "properties": {"height": 9.6}, "geometry": {"type": "Polygon", "coordinates": [[[151.1877611, -33.8861001], [151.1880413, -33.8861079], [151.188048, -33.8859977], [151.1880695, -33.8859988], [151.1880749, -33.885962], [151.1880561, -33.8858151], [151.1880561, -33.8857951], [151.1880279, -33.8857906], [151.1880346, -33.8856859], [151.1880507, -33.8856882], [151.1880554, -33.8856142], [151.1880566, -33.8856026], [151.1880341, -33.8856049], [151.1880283, -33.8855659], [151.1880189, -33.8855652], [151.1879016, -33.8855615], [151.187753, -33.8855568], [151.1877463, -33.8856347], [151.1877266, -33.8856335], [151.1875045, -33.8856197], [151.1874955, -33.8856191], [151.18747, -33.8856191], [151.1874727, -33.8855479], [151.1871844, -33.8855368], [151.1871817, -33.8855746], [151.1870087, -33.8855646], [151.1870047, -33.885598], [151.1870027, -33.885641], [151.1869736, -33.8856404], [151.1869586, -33.8856404], [151.186957, -33.8856529], [151.1869555, -33.8856845], [151.1869725, -33.8856854], [151.1869537, -33.88603], [151.1872661, -33.8860396], [151.1872769, -33.88604], [151.1872742, -33.8860578], [151.1874392, -33.8860656], [151.1874405, -33.8860455], [151.1874663, -33.8860467], [151.1875384, -33.88605], [151.1875357, -33.88606], [151.1875572, -33.8860611], [151.1875545, -33.8861696], [151.1877342, -33.8861747], [151.1877423, -33.8860956], [151.1877611, -33.8861001]]]}}, {"type": "Feature", "properties": {"height": 6.4}, "geometry": {"type": "Polygon", "coordinates": [[[151.1866509, -33.8860051], [151.186698, -33.886003], [151.1866898, -33.8858786], [151.1866286, -33.8858813], [151.186624, -33.885809], [151.1865114, -33.885812], [151.1865016, -33.8857868], [151.1864809, -33.8857701], [151.1864573, -33.8857596], [151.1864302, -33.885757], [151.1864014, -33.8857627], [151.1863807, -33.8857751], [151.1863623, -33.8857971], [151.1863583, -33.8858195], [151.1862455, -33.8858229], [151.1862482, -33.8858762], [151.1862218, -33.8858755], [151.1862402, -33.8860149], [151.1860385, -33.8860218], [151.1860194, -33.8858702], [151.185882, -33.8858811], [151.1859029, -33.8862217], [151.1858834, -33.8862238], [151.1858945, -33.8863173], [151.1861102, -33.8863139], [151.1861142, -33.8863217], [151.1861582, -33.8863198], [151.1861618, -33.886376], [151.1862504, -33.8863722], [151.1862486, -33.886343], [151.1863311, -33.8863394], [151.1863304, -33.8863275], [151.1863595, -33.8863262], [151.1863574, -33.8862932], [151.1865783, -33.8862833], [151.1865795, -33.8863013], [151.1866701, -33.8862971], [151.1866509, -33.8860051]]]}}, {"type": "Feature", "properties": {"height": 9.6}, "geometry": {"type": "Polygon", "coordinates": [[[151.1863806, -33.8902706], [151.1864662, -33.8902527], [151.1864797, -33.8902973], [151.1866821, -33.8902551], [151.1866792, -33.8902456], [151.1867559, -33.8902296], [151.1867729, -33.890286], [151.1868008, -33.8902802], [151.1868992, -33.8906064], [151.1869411, -33.8905977], [151.187006, -33.8908131], [151.1870222, -33.8908097], [151.1870411, -33.890873], [151.1869317, -33.8908956], [151.1869194, -33.8908546], [151.186904, -33.8908578], [151.1869073, -33.8908687], [151.1866971, -33.8909118], [151.1866815, -33.8908594], [151.1866523, -33.8908654], [151.18662, -33.8908718], [151.1866291, -33.8909032], [151.1866138, -33.8909063], [151.1866171, -33.8909173], [151.1865479, -33.8909313], [151.1865452, -33.8909221], [151.1865285, -33.8909255], [151.1865001, -33.8908294], [151.1864796, -33.8908336], [151.186498, -33.8908956], [151.186371, -33.8909216], [151.1863404, -33.8908184], [151.1863769, -33.8908109], [151.18637, -33.8907879], [151.1864285, -33.8907759], [151.1864153, -33.8907317], [151.186441, -33.8907263], [151.1863761, -33.8905104], [151.186339, -33.8905181], [151.1863142, -33.8904358], [151.1863749, -33.8904232], [151.1863669, -33.8903968], [151.1864157, -33.8903866], [151.1863806, -33.8902706]]]}}, {"type": "Feature", "properties": {"height": 6.4}, "geometry": {"type": "Polygon", "coordinates": [[[151.1883535, -33.8911659], [151.1885412, -33.8909878], [151.1885345, -33.8908588], [151.188143, -33.8908728], [151.1881434, -33.8908822], [151.1880666, -33.890885], [151.1880681, -33.8909117], [151.1879821, -33.8909149], [151.1879814, -33.8909032], [151.1878979, -33.8909064], [151.1878994, -33.8909331], [151.1877729, -33.8909379], [151.1877782, -33.8910341], [151.1877581, -33.8910349], [151.1877635, -33.8911312], [151.1878421, -33.8911282], [151.1878439, -33.8911607], [151.1879143, -33.891158], [151.1879087, -33.8910572], [151.1878506, -33.8910594], [151.1878467, -33.8909902], [151.1879081, -33.8909879], [151.1879084, -33.8909931], [151.1879782, -33.8909904], [151.187977, -33.8909688], [151.1880973, -33.890964], [151.1880979, -33.890975], [151.1881317, -33.8909737], [151.1881439, -33.8911827], [151.1882681, -33.8911773], [151.1882676, -33.8911704], [151.1883535, -33.8911659]]]}}, {"type": "Feature", "properties": {"height": 9.6}, "geometry": {"type": "Polygon", "coordinates": [[[151.1875128, -33.8912113], [151.1873393, -33.8912148], [151.1873384, -33.8911859], [151.1872484, -33.8911877], [151.187246, -33.8911047], [151.1872376, -33.8911048], [151.1872314, -33.8908883], [151.1873282, -33.8908864], [151.1873324, -33.8910315], [151.1875325, -33.8910276], [151.1875339, -33.8910786], [151.187509, -33.8910791], [151.1875128, -33.8912113]]]}}, {"type": "Feature", "properties": {"height": 12.8}, "geometry": {"type": "Polygon", "coordinates": [[[151.1832478, -33.8912684], [151.1833256, -33.891215], [151.1832116, -33.8911081], [151.1834182, -33.8909489], [151.1833592, -33.8908944], [151.1833203, -33.8909244], [151.1831768, -33.8907931], [151.1831915, -33.8907797], [151.1831789, -33.8907672], [151.1831432, -33.8907318], [151.1831017, -33.8907574], [151.1829863, -33.8906372], [151.1830279, -33.8906016], [151.1829729, -33.890547], [151.1829018, -33.8906016], [151.1828804, -33.8905827], [151.1828589, -33.8905994], [151.182879, -33.8906161], [151.1827852, -33.890694], [151.1827275, -33.8906372], [151.1826953, -33.8906606], [151.1826698, -33.8906383], [151.1826001, -33.8906962], [151.1826256, -33.8907196], [151.1826122, -33.8907318], [151.1826779, -33.8907931], [151.1826511, -33.8908153], [151.1826913, -33.8909712], [151.1827074, -33.8909857], [151.1827127, -33.8909934], [151.1826926, -33.8910157], [151.182757, -33.8910758], [151.182749, -33.8910836], [151.1827825, -33.8911159], [151.1827959, -33.8911092], [151.1828402, -33.8911482], [151.1828026, -33.8911771], [151.1828469, -33.8912116], [151.1829434, -33.8911382], [151.1828992, -33.891097], [151.1828871, -33.8910825], [151.1828764, -33.8910747], [151.183039, -33.8909404], [151.1831025, -33.8909988], [151.1831895, -33.8909347], [151.1832394, -33.8909806], [151.1830748, -33.8911025], [151.1832478, -33.8912684]]]}}, {"type": "Feature", "properties": {"height": 3.2}, "geometry": {"type": "Polygon", "coordinates": [[[151.1866136, -33.8846308], [151.1859301, -33.8847195], [151.1860102, -33.8843644], [151.1866269, -33.884582], [151.1866355, -33.8845965], [151.1866329, -33.8846184], [151.1866136, -33.8846308]]]}}, {"type": "Feature", "properties": {"height": 9.6}, "geometry": {"type": "Polygon", "coordinates": [[[151.1890669, -33.8884345], [151.1892225, -33.8884169], [151.1892249, -33.8884315], [151.1895862, -33.8883905], [151.1895842, -33.8883789], [151.1896106, -33.888376], [151.1896095, -33.8883689], [151.1897029, -33.8883584], [151.1897101, -33.8883575], [151.1897119, -33.8883682], [151.1897395, -33.8883651], [151.1897815, -33.8886211], [151.1898093, -33.8886179], [151.1898149, -33.8886517], [151.1898206, -33.8886867], [151.189797, -33.8886894], [151.1898404, -33.8889541], [151.1896813, -33.8889721], [151.1896789, -33.8889576], [151.1893126, -33.8889991], [151.1893156, -33.8890168], [151.1891721, -33.8890331], [151.1891293, -33.8887732], [151.1891082, -33.8887756], [151.1890943, -33.888691], [151.1891088, -33.8886894], [151.1890669, -33.8884345]]]}}]}